store_id,name,street,city,state,zip_code,phone,category
0BJDN,Quick Chek Food Stores,5799 Riley Expressway Suite 239,Leicester,NC,28748,001-247-045-5085,"Meat & Seafood, Personal Care & Health, Frozen Foods"
0HKZ3,Border Station,973 Harris Fords,Goodsprings,AL,35560,(488)094-8157x20328,"Baby Care, Bread & Bakery, Deli, Fruits & Vegetables, Grains & Pasta & Sides, Meat & Seafood, Pet Care, Beverages, Breakfast & Cereal, Canned Goods & Soups, Cookies & Snacks & Candy, Dairy & Eggs & Cheese, Frozen Foods, Paper & Cleaning & Home"
0K71G,Hillcrest,037 Richards Locks,Victor,IA,52347,(120)447-8375,"Dairy & Eggs & Cheese, Deli, Meat & Seafood, Paper & Cleaning & Home, Pet Care, Beverages, Breakfast & Cereal, Condiments & Spice & Bake, Frozen Foods, Fruits & Vegetables, Grains & Pasta & Sides"
0N43T,Victory Marketing Llc,360 Bishop Port Apt. 667,Conover,OH,45317,764-184-0179x4789,"Baby Care, Cookies & Snacks & Candy, Personal Care & Health, Beverages, Deli, Grains & Pasta & Sides, Pet Care"
0OENH,Casey's Cove Convenience Store,194 Billy Summit Suite 176,Mossyrock,WA,98564,429-825-5376,"Baby Care, Condiments & Spice & Bake, Deli, Frozen Foods, Fruits & Vegetables, Meat & Seafood, Beverages, Breakfast & Cereal, Canned Goods & Soups, Grains & Pasta & Sides, Paper & Cleaning & Home, Personal Care & Health, Pet Care"
0PE4W,Spaceway Oil CO,6558 Gutierrez Knolls Apt. 067,College Station,TX,77840,222-478-2013x70666,"Baby Care, Bread & Bakery, Breakfast & Cereal, Canned Goods & Soups, Condiments & Spice & Bake, Cookies & Snacks & Candy, Dairy & Eggs & Cheese, Frozen Foods, Grains & Pasta & Sides, Meat & Seafood, Pet Care, Beverages, Deli, Paper & Cleaning & Home, Personal Care & Health"
0PHNB,Pit Row,847 Stephanie Springs Apt. 166,Claunch,NM,87011,001-876-073-3639,"Beverages, Bread & Bakery, Frozen Foods, Grains & Pasta & Sides, Meat & Seafood, Paper & Cleaning & Home, Personal Care & Health, Breakfast & Cereal, Fruits & Vegetables"
12XXK,Pump-N-Pantry Of NY,5625 Young Corners Suite 327,Philadelphia,PA,19152,+1-322-558-3705x542,"Beverages, Canned Goods & Soups, Deli, Fruits & Vegetables, Grains & Pasta & Sides, Meat & Seafood, Personal Care & Health, Baby Care, Bread & Bakery, Breakfast & Cereal, Condiments & Spice & Bake, Cookies & Snacks & Candy, Dairy & Eggs & Cheese, Frozen Foods, Pet Care"
13BNE,Sunset Foods,9118 Robin Walks,Carpinteria,CA,93014,-2038,"Beverages, Breakfast & Cereal, Canned Goods & Soups, Condiments & Spice & Bake, Deli, Frozen Foods, Fruits & Vegetables, Pet Care, Baby Care, Bread & Bakery, Cookies & Snacks & Candy, Dairy & Eggs & Cheese, Grains & Pasta & Sides, Meat & Seafood, Paper & Cleaning & Home, Personal Care & Health"
14VAS,Mapco,4757 Mcintyre Manors Suite 874,Woburn,MA,1813,777.937.3614x877,"Canned Goods & Soups, Fruits & Vegetables, Meat & Seafood, Pet Care, Bread & Bakery, Condiments & Spice & Bake, Cookies & Snacks & Candy, Deli, Frozen Foods, Grains & Pasta & Sides, Paper & Cleaning & Home"
16G9G,Dandy Mini Mart,5909 Louis Green Apt. 811,Hinton,IA,51024,+1-857-125-6064x729,"Beverages, Breakfast & Cereal, Condiments & Spice & Bake, Cookies & Snacks & Candy, Deli, Frozen Foods, Personal Care & Health, Pet Care, Baby Care, Canned Goods & Soups, Dairy & Eggs & Cheese, Fruits & Vegetables, Grains & Pasta & Sides, Paper & Cleaning & Home"
17KE2,Jackson Food Store,341 Barbara Mill Apt. 607,Urbanna,VA,23175,(728)485-3425,"Beverages, Bread & Bakery, Canned Goods & Soups, Condiments & Spice & Bake, Cookies & Snacks & Candy, Fruits & Vegetables, Grains & Pasta & Sides, Paper & Cleaning & Home, Personal Care & Health, Frozen Foods"
1HTLD,Mapco Express,092 Buck Unions Apt. 873,Minneapolis,MN,55467,545072682,"Bread & Bakery, Breakfast & Cereal, Condiments & Spice & Bake, Grains & Pasta & Sides"
1M1KC,Cubbys,416 Chad Road Apt. 012,Andrews,NC,28901,654.061.7987x453,"Baby Care, Meat & Seafood, Personal Care & Health, Bread & Bakery, Breakfast & Cereal, Canned Goods & Soups, Condiments & Spice & Bake, Cookies & Snacks & Candy, Dairy & Eggs & Cheese, Deli, Frozen Foods, Fruits & Vegetables, Pet Care"
1NXB6,Sheetz,31396 Meyer Flat,Newaygo,MI,49337,013-530-0677x205,"Bread & Bakery, Breakfast & Cereal, Condiments & Spice & Bake, Deli, Pet Care, Dairy & Eggs & Cheese, Frozen Foods, Personal Care & Health"
1O3SE,Jim's Quick Stop,8473 Johnson Heights Suite 700,Ridgway,CO,81432,(567)713-0327,"Baby Care, Bread & Bakery, Canned Goods & Soups, Condiments & Spice & Bake, Cookies & Snacks & Candy, Deli, Fruits & Vegetables, Pet Care, Beverages, Breakfast & Cereal, Dairy & Eggs & Cheese, Meat & Seafood"
1RMM5,Dandy Mini Mart,45651 Garcia Mill,Ripon,WI,54971,001-948-229-6396x769,"Condiments & Spice & Bake, Cookies & Snacks & Candy, Fruits & Vegetables, Personal Care & Health, Baby Care, Dairy & Eggs & Cheese, Deli"
1RMXY,Cubbys,551 Jones Groves Suite 664,Dahinda,IL,61428,(246)575-8628x24563,"Condiments & Spice & Bake, Dairy & Eggs & Cheese, Fruits & Vegetables, Personal Care & Health, Pet Care, Canned Goods & Soups, Cookies & Snacks & Candy, Deli, Frozen Foods, Grains & Pasta & Sides, Paper & Cleaning & Home"
1TSFX,Cefco,560 Harris Camp,Kane,IL,62054,001-912-819-3764x289,"Beverages, Bread & Bakery, Breakfast & Cereal, Canned Goods & Soups, Condiments & Spice & Bake, Dairy & Eggs & Cheese, Meat & Seafood, Paper & Cleaning & Home, Pet Care, Baby Care, Deli, Frozen Foods, Fruits & Vegetables, Grains & Pasta & Sides, Personal Care & Health"
1U31K,Sheetz,3588 Daryl Forest Apt. 908,Washington,DC,20240,001-663-144-0879,"Baby Care, Cookies & Snacks & Candy, Condiments & Spice & Bake, Paper & Cleaning & Home"
1ZTDE,Beasley Enterprises Inc,183 Kyle Union Suite 467,Carversville,PA,18913,001-809-731-2257x714,"Beverages, Bread & Bakery, Breakfast & Cereal, Canned Goods & Soups, Cookies & Snacks & Candy, Personal Care & Health, Pet Care, Condiments & Spice & Bake, Dairy & Eggs & Cheese, Grains & Pasta & Sides, Meat & Seafood, Paper & Cleaning & Home"
27I5T,Jim's Quick Stop,5814 Robinson Pines Suite 993,Lidgerwood,ND,58053,(413)632-6513x102,"Breakfast & Cereal, Cookies & Snacks & Candy, Dairy & Eggs & Cheese, Deli, Fruits & Vegetables, Grains & Pasta & Sides, Meat & Seafood, Paper & Cleaning & Home, Pet Care, Condiments & Spice & Bake"
28JE8,Baum's Mercantile,243 Powell Rest Apt. 921,Lawrenceburg,TN,38464,515985005,"Baby Care, Beverages, Bread & Bakery, Canned Goods & Soups, Cookies & Snacks & Candy, Frozen Foods, Grains & Pasta & Sides, Meat & Seafood, Pet Care, Dairy & Eggs & Cheese, Deli, Fruits & Vegetables, Paper & Cleaning & Home, Personal Care & Health"
2AKCB,Plaid Pantry,2134 Kennedy Haven Apt. 381,Rural Hall,NC,27094,748.585.2448x7085,"Baby Care, Beverages, Canned Goods & Soups, Fruits & Vegetables, Grains & Pasta & Sides, Meat & Seafood, Personal Care & Health, Condiments & Spice & Bake, Cookies & Snacks & Candy, Deli, Frozen Foods"
2ED08,Simonson Market,448 Jason Ways Apt. 179,Oswego,KS,67356,001-727-421-7583x861,"Baby Care, Dairy & Eggs & Cheese, Deli, Frozen Foods, Bread & Bakery, Condiments & Spice & Bake, Paper & Cleaning & Home"
2IMPZ,Maay Convenient Inc,317 Luis Ramp,Fort Benning,GA,31995,704.061.2698x86684,"Beverages, Bread & Bakery, Canned Goods & Soups, Pet Care"
2K77Q,Stripes Llc,86168 Caleb Way,Milledgeville,IL,61051,4005598880,"Bread & Bakery, Breakfast & Cereal, Canned Goods & Soups, Cookies & Snacks & Candy, Fruits & Vegetables, Grains & Pasta & Sides, Personal Care & Health, Baby Care, Dairy & Eggs & Cheese, Deli, Frozen Foods, Paper & Cleaning & Home, Pet Care"
2LJYP,Super Quik Inc,41375 Caitlin Lodge,Warren,OR,97053,(449)800-1043x386,"Baby Care, Bread & Bakery, Canned Goods & Soups, Fruits & Vegetables, Grains & Pasta & Sides, Pet Care"
2TM62,Fasmart,88606 White Extension Apt. 065,Richmond,VA,23237,-10327,"Baby Care, Breakfast & Cereal, Canned Goods & Soups, Deli, Grains & Pasta & Sides, Pet Care"
2TUXA,Machias Mainway,85395 Shaun Center Apt. 847,Ropesville,TX,79358,895.942.1446x7232,"Cookies & Snacks & Candy, Pet Care, Fruits & Vegetables, Grains & Pasta & Sides, Personal Care & Health"
2XQ8U,Super Quik Inc,31742 Rachael Field,Mount Vernon,OH,43050,+1-064-138-8538x0665,"Bread & Bakery, Breakfast & Cereal, Canned Goods & Soups, Dairy & Eggs & Cheese, Frozen Foods, Grains & Pasta & Sides, Pet Care, Baby Care, Beverages, Condiments & Spice & Bake, Cookies & Snacks & Candy, Deli, Fruits & Vegetables, Meat & Seafood, Paper & Cleaning & Home, Personal Care & Health"
2Y0J2,Cubbys,1339 Burke Plaza,Murfreesboro,NC,27855,+1-223-717-8323x6138,"Baby Care, Bread & Bakery, Breakfast & Cereal, Canned Goods & Soups, Condiments & Spice & Bake, Cookies & Snacks & Candy, Deli, Frozen Foods, Personal Care & Health, Dairy & Eggs & Cheese, Meat & Seafood, Paper & Cleaning & Home"
2YR0H,Cubbys,82043 Stephanie Curve Suite 506,University Park,PA,16802,(115)068-1640x075,"Breakfast & Cereal, Condiments & Spice & Bake, Dairy & Eggs & Cheese, Fruits & Vegetables, Beverages, Canned Goods & Soups, Cookies & Snacks & Candy, Meat & Seafood, Personal Care & Health"
2YRRD,Mapco,356 David Mill,Britton,SD,57430,753.058.8874,"Baby Care, Grains & Pasta & Sides, Beverages, Canned Goods & Soups, Meat & Seafood"
32YZ9,Plaid Pantries Inc,975 Smith Mountain,Mountain View,HI,96771,512.665.4792,"Canned Goods & Soups, Condiments & Spice & Bake, Grains & Pasta & Sides, Baby Care, Frozen Foods, Pet Care"
34KK0,Fasmart,730 John Port,Gate City,VA,24251,(118)517-1306x7618,"Baby Care, Bread & Bakery, Deli, Canned Goods & Soups, Frozen Foods"
36BGX,7-Eleven,000 White Union Apt. 898,Leeds,ND,58346,(387)799-6166x65661,"Baby Care, Bread & Bakery, Canned Goods & Soups"
3HM75,Express Mart Stores,2796 Anne Walk,Somerset,PA,15510,330.217.2474x2052,"Baby Care, Canned Goods & Soups, Grains & Pasta & Sides, Paper & Cleaning & Home, Pet Care, Breakfast & Cereal, Dairy & Eggs & Cheese, Frozen Foods, Personal Care & Health"
3II5S,Stripes Llc,699 Raymond Prairie,Acton,CA,93510,(515)580-7978x63261,"Bread & Bakery, Grains & Pasta & Sides, Dairy & Eggs & Cheese"
3L5CM,Mapco,63954 Taylor Club Suite 170,Moretown,VT,5660,+1-711-099-9130x6407,"Beverages, Condiments & Spice & Bake, Cookies & Snacks & Candy, Paper & Cleaning & Home, Baby Care, Breakfast & Cereal, Canned Goods & Soups, Meat & Seafood, Personal Care & Health"
3MGOV,Dandy Mini Mart,940 William Ramp Apt. 539,Minneapolis,MN,55444,423-876-7140,"Beverages, Canned Goods & Soups, Condiments & Spice & Bake, Cookies & Snacks & Candy, Dairy & Eggs & Cheese, Deli, Frozen Foods, Grains & Pasta & Sides, Meat & Seafood, Paper & Cleaning & Home, Baby Care, Bread & Bakery, Breakfast & Cereal, Fruits & Vegetables, Personal Care & Health, Pet Care"
3PQ8F,Mapco,63434 Danielle View Apt. 464,Arroyo Grande,CA,93421,272.351.4940x0757,"Bread & Bakery, Breakfast & Cereal, Canned Goods & Soups, Deli, Frozen Foods, Grains & Pasta & Sides, Meat & Seafood, Personal Care & Health, Cookies & Snacks & Candy, Paper & Cleaning & Home"
3S8EB,Maay Convenient Inc,17602 Benjamin Mission Apt. 327,Hudson,OH,44236,001-416-456-4338x292,"Bread & Bakery, Breakfast & Cereal, Cookies & Snacks & Candy, Grains & Pasta & Sides, Meat & Seafood, Paper & Cleaning & Home, Personal Care & Health, Baby Care, Beverages, Dairy & Eggs & Cheese, Deli, Frozen Foods, Fruits & Vegetables, Pet Care"
3SYPO,Stripes Llc,017 Taylor Summit Suite 503,Tampa,FL,33682,(900)213-1598x55086,"Canned Goods & Soups, Fruits & Vegetables, Personal Care & Health, Pet Care"
3T1TP,Irving Oil Corp,20630 Blackburn Islands,Lisbon,NY,13658,(240)467-8895x0797,"Canned Goods & Soups, Cookies & Snacks & Candy, Frozen Foods, Fruits & Vegetables, Grains & Pasta & Sides, Meat & Seafood, Baby Care, Beverages, Bread & Bakery, Breakfast & Cereal, Deli, Personal Care & Health"
3W6UE,Baum's Mercantile,9854 Michael Brook,Burnside,IA,50521,6928908591,"Baby Care, Beverages, Cookies & Snacks & Candy, Dairy & Eggs & Cheese, Deli, Grains & Pasta & Sides, Paper & Cleaning & Home, Personal Care & Health, Pet Care, Bread & Bakery"
3WGHH,Plaid Pantries Inc,416 Turner Stream,Brookeville,MD,20833,762-773-8453x8877,"Baby Care, Paper & Cleaning & Home, Personal Care & Health, Pet Care, Beverages, Bread & Bakery, Breakfast & Cereal, Dairy & Eggs & Cheese, Deli, Grains & Pasta & Sides, Meat & Seafood"
3XUGZ,Super Quik Inc,61396 Hansen Dale Apt. 063,Glencoe,KY,41046,4549255712,"Baby Care, Canned Goods & Soups, Dairy & Eggs & Cheese, Grains & Pasta & Sides, Personal Care & Health, Cookies & Snacks & Candy, Paper & Cleaning & Home, Pet Care"
48V79,Sheetz,7258 Taylor Loaf,Empire,CO,80438,410-010-0307,"Baby Care, Breakfast & Cereal, Canned Goods & Soups, Cookies & Snacks & Candy, Paper & Cleaning & Home, Personal Care & Health"
49TNX,Irving Oil Corp,88306 Santiago Course,Lady Lake,FL,32158,135.620.2173x4045,"Beverages, Bread & Bakery, Deli, Frozen Foods, Meat & Seafood, Pet Care, Breakfast & Cereal, Canned Goods & Soups, Condiments & Spice & Bake, Cookies & Snacks & Candy, Grains & Pasta & Sides, Paper & Cleaning & Home, Personal Care & Health"
4AOVR,Dandy Mini Mart,21305 Elizabeth Heights,West Willow,PA,17583,+1-804-215-3480x417,"Beverages, Bread & Bakery, Dairy & Eggs & Cheese, Deli, Personal Care & Health, Baby Care, Breakfast & Cereal, Condiments & Spice & Bake, Frozen Foods, Meat & Seafood, Paper & Cleaning & Home"
4CZ4G,Hillcrest,0039 Jesus Drives,Tomkins Cove,NY,10986,059-445-7013x287,"Breakfast & Cereal, Condiments & Spice & Bake, Cookies & Snacks & Candy, Dairy & Eggs & Cheese, Fruits & Vegetables, Grains & Pasta & Sides, Personal Care & Health, Pet Care, Baby Care, Bread & Bakery, Canned Goods & Soups, Frozen Foods, Meat & Seafood, Paper & Cleaning & Home"
4FJF2,Maay Convenient Inc,5911 Castillo Stream Apt. 808,Lake Charles,LA,70612,011.055.2057,"Beverages, Bread & Bakery, Dairy & Eggs & Cheese, Cookies & Snacks & Candy, Meat & Seafood"
4SM88,Irving Oil Corp,0220 Stanton Bridge Suite 926,Merced,CA,95341,001-991-137-2072x991,"Baby Care, Breakfast & Cereal, Condiments & Spice & Bake, Deli, Frozen Foods, Grains & Pasta & Sides, Personal Care & Health, Pet Care, Beverages, Bread & Bakery, Canned Goods & Soups, Cookies & Snacks & Candy, Meat & Seafood, Paper & Cleaning & Home"
4SRHC,Pump-N-Pantry Of NY,2500 Newman Heights Suite 068,Caledonia,MN,55921,(573)772-3503x5172,"Bread & Bakery, Breakfast & Cereal, Canned Goods & Soups, Dairy & Eggs & Cheese, Deli, Frozen Foods, Personal Care & Health, Baby Care, Beverages, Condiments & Spice & Bake, Cookies & Snacks & Candy, Fruits & Vegetables, Grains & Pasta & Sides, Meat & Seafood, Paper & Cleaning & Home, Pet Care"
4WSHA,Simonson Market,259 Wilkinson Lights Suite 827,Morton,PA,19070,473-124-0702,"Beverages, Deli, Meat & Seafood, Canned Goods & Soups, Condiments & Spice & Bake, Dairy & Eggs & Cheese, Frozen Foods, Fruits & Vegetables, Grains & Pasta & Sides, Paper & Cleaning & Home, Personal Care & Health, Pet Care"
54BW4,Jackson Food Store,2514 Moss Port,Charlotte,NC,28221,717.333.8225,"Baby Care, Breakfast & Cereal, Canned Goods & Soups, Meat & Seafood, Beverages, Cookies & Snacks & Candy, Frozen Foods, Fruits & Vegetables"
596YT,Sheetz,42087 Shelley Course Apt. 918,New Orleans,LA,70145,469-655-7181,"Baby Care, Deli, Cookies & Snacks & Candy, Fruits & Vegetables"
5INB7,Pit Row,9916 Brian Court Apt. 221,Tigrett,TN,38070,(345)684-3959,"Breakfast & Cereal, Canned Goods & Soups, Cookies & Snacks & Candy, Dairy & Eggs & Cheese, Deli, Frozen Foods, Grains & Pasta & Sides, Meat & Seafood, Paper & Cleaning & Home, Personal Care & Health, Pet Care, Baby Care, Beverages, Bread & Bakery, Condiments & Spice & Bake, Fruits & Vegetables"
5LHF9,Casey's Cove Convenience Store,29683 Drake Harbor,Bloomington,WI,53804,001-734-879-4294x812,"Baby Care, Bread & Bakery, Condiments & Spice & Bake, Cookies & Snacks & Candy, Dairy & Eggs & Cheese, Fruits & Vegetables, Paper & Cleaning & Home, Personal Care & Health, Breakfast & Cereal, Canned Goods & Soups, Deli, Meat & Seafood, Pet Care"
5ORB8,Victory Marketing Llc,0389 Edwards Falls,Esmond,ND,58332,001-355-354-7400,"Baby Care, Grains & Pasta & Sides, Bread & Bakery, Breakfast & Cereal, Meat & Seafood, Personal Care & Health"
631TS,Border Station,83988 Lopez Ferry Apt. 774,Hyattsville,MD,20784,001-809-682-6638,"Beverages, Breakfast & Cereal, Canned Goods & Soups, Frozen Foods, Grains & Pasta & Sides, Meat & Seafood, Personal Care & Health, Pet Care"
6BT2B,Cefco,1954 Davis Isle,Wendell,MA,1379,001-566-837-0795x537,"Beverages, Deli, Fruits & Vegetables, Meat & Seafood, Breakfast & Cereal, Canned Goods & Soups, Condiments & Spice & Bake, Dairy & Eggs & Cheese, Paper & Cleaning & Home"
6CH7I,Mapco Express,355 Hall Mountain,Port Richey,FL,34673,149.652.4863,"Baby Care, Beverages, Canned Goods & Soups"
6D1CD,Rutters Farm Store,82452 Heather Cove Apt. 928,Lime Springs,IA,52155,+1-917-370-1278x2301,"Condiments & Spice & Bake, Cookies & Snacks & Candy, Fruits & Vegetables, Pet Care, Beverages, Canned Goods & Soups, Dairy & Eggs & Cheese, Frozen Foods, Grains & Pasta & Sides, Meat & Seafood, Paper & Cleaning & Home"
6DT5L,Victory Marketing Llc,01442 John Fields Apt. 326,Evant,TX,76525,837-707-8300x743,"Dairy & Eggs & Cheese, Frozen Foods, Meat & Seafood, Canned Goods & Soups"
6I2R7,Simonson Market,4311 Michael Radial Apt. 479,Lyndhurst,VA,22952,+1-063-985-3149x0839,"Baby Care, Frozen Foods, Fruits & Vegetables, Meat & Seafood, Beverages, Bread & Bakery, Breakfast & Cereal, Cookies & Snacks & Candy, Dairy & Eggs & Cheese, Deli, Grains & Pasta & Sides, Paper & Cleaning & Home, Personal Care & Health, Pet Care"
6J0JD,Express Mart Stores,21061 Brittany Heights,Columbus,GA,31993,+1-503-291-8464x1272,"Beverages, Breakfast & Cereal, Condiments & Spice & Bake, Dairy & Eggs & Cheese, Deli, Meat & Seafood, Paper & Cleaning & Home, Canned Goods & Soups, Frozen Foods"
6KNFC,Rutters Farm Store,2383 Gutierrez Lakes Suite 226,New Enterprise,PA,16664,001-981-366-8830x262,"Baby Care, Canned Goods & Soups, Dairy & Eggs & Cheese, Deli, Frozen Foods, Personal Care & Health, Bread & Bakery, Breakfast & Cereal, Grains & Pasta & Sides, Meat & Seafood, Paper & Cleaning & Home, Pet Care"
6Q67U,Beasley Enterprises Inc,8986 Linda Land,Beeville,TX,78102,822.225.5443,"Baby Care, Beverages, Canned Goods & Soups, Cookies & Snacks & Candy, Dairy & Eggs & Cheese, Frozen Foods, Fruits & Vegetables, Grains & Pasta & Sides, Bread & Bakery, Breakfast & Cereal, Condiments & Spice & Bake, Deli, Meat & Seafood, Paper & Cleaning & Home, Personal Care & Health, Pet Care"
6QSXS,6-Twelve Convenient-Mart Inc,0066 Scott Port Suite 610,Mound Valley,KS,67354,(873)572-0981x9534,"Canned Goods & Soups, Cookies & Snacks & Candy, Deli, Personal Care & Health, Pet Care, Dairy & Eggs & Cheese, Grains & Pasta & Sides, Paper & Cleaning & Home"
6UMFQ,Dandy Mini Mart,186 Dixon Way,Jellico,TN,37762,233-760-7978x964,"Baby Care, Fruits & Vegetables, Pet Care, Bread & Bakery, Breakfast & Cereal, Canned Goods & Soups, Cookies & Snacks & Candy, Paper & Cleaning & Home"
70GOX,Spaceway Oil CO,5396 Chelsea Flat Apt. 623,Montgomery,TX,77316,001-738-458-7037x652,"Beverages, Condiments & Spice & Bake, Fruits & Vegetables, Grains & Pasta & Sides, Paper & Cleaning & Home, Personal Care & Health, Pet Care, Baby Care, Bread & Bakery, Breakfast & Cereal, Canned Goods & Soups, Cookies & Snacks & Candy, Deli"
717T9,Casey's Cove Convenience Store,9068 Gutierrez Hill Suite 427,Woodinville,WA,98072,-3150,"Canned Goods & Soups, Dairy & Eggs & Cheese, Deli, Fruits & Vegetables, Grains & Pasta & Sides, Meat & Seafood, Paper & Cleaning & Home, Personal Care & Health, Pet Care, Bread & Bakery, Breakfast & Cereal, Condiments & Spice & Bake, Cookies & Snacks & Candy, Frozen Foods"
72SK6,Rutters Farm Store,2392 Gomez Union Suite 448,Beaver,WA,98305,(805)435-5163x293,"Canned Goods & Soups, Dairy & Eggs & Cheese, Frozen Foods, Fruits & Vegetables, Meat & Seafood, Paper & Cleaning & Home, Pet Care, Bread & Bakery, Breakfast & Cereal, Cookies & Snacks & Candy, Deli, Personal Care & Health"
74JM7,Dandy Mini Mart,97625 Aimee Lakes,Thawville,IL,60968,+1-547-704-1258x046,"Condiments & Spice & Bake, Dairy & Eggs & Cheese, Fruits & Vegetables, Grains & Pasta & Sides, Meat & Seafood, Paper & Cleaning & Home, Personal Care & Health, Cookies & Snacks & Candy, Frozen Foods, Pet Care"
75EWH,Maay Convenient Inc,92266 Rojas Freeway,Culbertson,MT,59218,001-182-154-0793x035,"Baby Care, Beverages, Bread & Bakery, Canned Goods & Soups, Condiments & Spice & Bake, Dairy & Eggs & Cheese, Deli, Frozen Foods, Fruits & Vegetables, Meat & Seafood, Paper & Cleaning & Home, Cookies & Snacks & Candy, Grains & Pasta & Sides, Personal Care & Health, Pet Care"
78UQA,6-Twelve Convenient-Mart Inc,5545 Peck Grove,Lakeshore,FL,33854,+1-665-405-2024x031,"Bread & Bakery, Canned Goods & Soups, Deli, Frozen Foods, Meat & Seafood, Paper & Cleaning & Home, Personal Care & Health, Baby Care, Beverages, Cookies & Snacks & Candy, Grains & Pasta & Sides, Pet Care"
792C7,6-Twelve Convenient-Mart Inc,975 Richard Stream,Columbus,OH,43240,(749)760-1721,"Baby Care, Bread & Bakery, Cookies & Snacks & Candy, Deli, Fruits & Vegetables, Paper & Cleaning & Home, Pet Care"
7ASSJ,Plaid Pantries Inc,7343 Michael Bypass,Charlotte,NC,28216,036.698.9480,"Bread & Bakery, Meat & Seafood, Paper & Cleaning & Home, Baby Care, Beverages, Canned Goods & Soups, Condiments & Spice & Bake, Cookies & Snacks & Candy, Dairy & Eggs & Cheese, Deli, Frozen Foods, Fruits & Vegetables, Grains & Pasta & Sides, Personal Care & Health, Pet Care"
7IEJT,Quick Chek Food Stores,053 Larry Corners,Vicksburg,MS,39180,+1-053-170-0305x6815,"Beverages, Breakfast & Cereal, Frozen Foods, Fruits & Vegetables, Pet Care, Baby Care, Bread & Bakery, Canned Goods & Soups, Condiments & Spice & Bake, Cookies & Snacks & Candy, Deli, Meat & Seafood, Personal Care & Health"
7LKQH,Quick Chek Food Stores,70295 Richardson Curve Apt. 891,Mena,AR,71953,655-773-1754x2406,"Beverages, Cookies & Snacks & Candy, Paper & Cleaning & Home, Personal Care & Health, Canned Goods & Soups, Frozen Foods, Fruits & Vegetables, Grains & Pasta & Sides"
7N4UM,Popeye Shell Superstop,9683 Perez Forest Suite 618,Sheffield,IA,50475,9856872835,"Baby Care, Condiments & Spice & Bake, Meat & Seafood, Personal Care & Health, Pet Care"
7NOQY,Elnemr Enterprises Inc,267 Young Trail Suite 076,Tiller,OR,97484,6403267966,"Beverages, Bread & Bakery, Breakfast & Cereal, Dairy & Eggs & Cheese, Frozen Foods, Personal Care & Health, Pet Care"
7O7TI,Cefco,459 Bentley Station Apt. 392,Graytown,OH,43432,+1-300-611-7228x7236,"Beverages, Canned Goods & Soups, Cookies & Snacks & Candy, Dairy & Eggs & Cheese, Deli, Frozen Foods, Meat & Seafood, Grains & Pasta & Sides, Pet Care"
7PSYZ,Stripes Llc,1625 Hernandez Pike,Hollywood,FL,33021,162-161-9446,"Beverages, Breakfast & Cereal, Condiments & Spice & Bake, Cookies & Snacks & Candy, Dairy & Eggs & Cheese, Deli, Fruits & Vegetables, Personal Care & Health, Baby Care, Bread & Bakery, Canned Goods & Soups, Meat & Seafood, Paper & Cleaning & Home, Pet Care"
7RAE8,Sheetz,484 Ayala Union Apt. 596,Pamplin,VA,23958,001-449-1915,"Bread & Bakery, Cookies & Snacks & Candy, Dairy & Eggs & Cheese, Deli, Frozen Foods, Meat & Seafood, Baby Care, Breakfast & Cereal, Fruits & Vegetables, Grains & Pasta & Sides, Paper & Cleaning & Home, Personal Care & Health"
7SDSK,Rutters Farm Store,6013 Sanders Square Suite 839,Columbia,MD,21044,072.994.5697,"Baby Care, Beverages, Condiments & Spice & Bake, Frozen Foods, Fruits & Vegetables, Grains & Pasta & Sides, Pet Care, Bread & Bakery, Breakfast & Cereal, Canned Goods & Soups, Dairy & Eggs & Cheese, Deli, Meat & Seafood"
7X8FT,Wesco Oil CO,37134 Kenneth Extensions,Bustins Island,ME,4013,(502)316-5704,"Breakfast & Cereal, Canned Goods & Soups, Cookies & Snacks & Candy, Pet Care, Paper & Cleaning & Home"
7ZMG0,Cefco,23562 Sutton Harbor,Orlean,VA,20128,(873)179-5772x930,"Baby Care, Breakfast & Cereal, Canned Goods & Soups, Frozen Foods, Grains & Pasta & Sides, Meat & Seafood, Paper & Cleaning & Home, Pet Care"
863SW,Plaid Pantry,77129 Lauren Shore Suite 242,San Pedro,CA,90733,7013835328,"Beverages, Frozen Foods, Meat & Seafood, Bread & Bakery, Grains & Pasta & Sides"
8J54U,Baum's Mercantile,217 Clinton Valleys,Porter,ME,4068,385-144-7393x8223,"Bread & Bakery, Canned Goods & Soups, Dairy & Eggs & Cheese, Fruits & Vegetables, Grains & Pasta & Sides, Personal Care & Health"
8L32G,Cracker Barrel Stores Inc,054 Elizabeth Garden Suite 034,Chula Vista,CA,91909,001-834-401-5101x615,"Baby Care, Bread & Bakery, Breakfast & Cereal, Canned Goods & Soups, Fruits & Vegetables, Paper & Cleaning & Home, Condiments & Spice & Bake, Cookies & Snacks & Candy, Dairy & Eggs & Cheese, Frozen Foods, Grains & Pasta & Sides, Personal Care & Health, Pet Care"
8MR06,Stripes Llc,66146 Rogers Square Apt. 878,Finley,ND,58230,877-949-7528x0095,"Beverages, Breakfast & Cereal, Canned Goods & Soups, Condiments & Spice & Bake, Cookies & Snacks & Candy, Dairy & Eggs & Cheese, Deli, Frozen Foods, Grains & Pasta & Sides, Meat & Seafood, Paper & Cleaning & Home, Personal Care & Health"
8YOR0,Jim's Quick Stop,624 Murphy Grove,Tennyson,TX,76953,(903)360-1144x1566,"Deli, Grains & Pasta & Sides, Meat & Seafood, Beverages, Breakfast & Cereal, Canned Goods & Soups, Fruits & Vegetables"
93WBS,Border Station,924 Michelle Prairie,Arlington,TX,76012,2547858469,"Personal Care & Health, Beverages, Pet Care"
95P3J,Lil' Champ,945 Larry Islands Suite 328,Breaks,VA,24607,(920)422-4950x2047,"Bread & Bakery, Canned Goods & Soups, Frozen Foods, Fruits & Vegetables, Paper & Cleaning & Home, Beverages, Condiments & Spice & Bake, Dairy & Eggs & Cheese, Grains & Pasta & Sides, Pet Care"
9JCHW,Fasmart,55198 Warren Curve Apt. 237,Bouckville,NY,13310,+1-627-980-1491x119,"Deli, Meat & Seafood, Personal Care & Health"
9JYTW,Express Mart Stores,032 Morgan Circles,Madison,VA,22727,+1-778-721-3421x0365,"Baby Care, Bread & Bakery, Condiments & Spice & Bake, Deli, Frozen Foods, Fruits & Vegetables, Canned Goods & Soups, Cookies & Snacks & Candy, Dairy & Eggs & Cheese, Meat & Seafood, Paper & Cleaning & Home, Pet Care"
9OVGV,Mapco,145 Mason Viaduct Apt. 769,Warrington,PA,18976,001-713-777-4225x120,"Beverages, Breakfast & Cereal, Canned Goods & Soups, Condiments & Spice & Bake, Baby Care, Frozen Foods, Fruits & Vegetables, Paper & Cleaning & Home"
9QARD,Country Market,516 Phillips Dam Apt. 831,Miami,FL,33131,(120)759-5251,"Baby Care, Bread & Bakery, Dairy & Eggs & Cheese, Deli, Frozen Foods, Meat & Seafood, Paper & Cleaning & Home"
9UIH0,Pit Row,19992 William Track,Star City,IN,46985,365.381.7036x6836,"Frozen Foods, Condiments & Spice & Bake, Dairy & Eggs & Cheese"
9WUOO,Spaceway Oil CO,615 Jeffrey Port,Saint Paul,MN,55119,001-987-887-8739x984,"Beverages, Bread & Bakery, Canned Goods & Soups, Condiments & Spice & Bake, Cookies & Snacks & Candy, Deli, Frozen Foods, Pet Care, Dairy & Eggs & Cheese, Fruits & Vegetables, Grains & Pasta & Sides, Meat & Seafood, Paper & Cleaning & Home"
9Y122,Cracker Barrel Stores Inc,2213 Thompson Prairie Suite 011,Custer,MT,59024,7787756003,"Baby Care, Dairy & Eggs & Cheese, Grains & Pasta & Sides, Paper & Cleaning & Home, Pet Care, Beverages, Bread & Bakery, Breakfast & Cereal, Canned Goods & Soups, Condiments & Spice & Bake, Cookies & Snacks & Candy, Deli, Fruits & Vegetables, Meat & Seafood, Personal Care & Health"
A2QI5,Baum's Mercantile,60272 Romero River Apt. 938,North Port,FL,34286,085-444-0431x6001,"Baby Care, Beverages, Frozen Foods, Pet Care, Breakfast & Cereal, Canned Goods & Soups, Deli, Fruits & Vegetables"
A4BUV,Casey's Cove Convenience Store,71926 Jimenez Street,Clintonville,WI,54929,001-282-030-6235x780,"Paper & Cleaning & Home, Baby Care, Beverages, Cookies & Snacks & Candy, Deli, Frozen Foods, Personal Care & Health, Pet Care"
A6K1H,Victory Marketing Llc,518 Amanda Union,Rake,IA,50465,(403)778-8772,"Condiments & Spice & Bake, Personal Care & Health, Breakfast & Cereal, Canned Goods & Soups, Dairy & Eggs & Cheese, Grains & Pasta & Sides"
A7FI5,7-Eleven,4065 Torres Motorway,Caspar,CA,95420,(876)730-7435,"Bread & Bakery, Condiments & Spice & Bake, Deli, Baby Care, Fruits & Vegetables, Meat & Seafood"
A7ZNF,Popeye Shell Superstop,75000 Love Plaza Suite 822,Wilbur,OR,97494,2875653428,"Bread & Bakery, Canned Goods & Soups, Fruits & Vegetables, Personal Care & Health, Baby Care, Beverages, Deli, Meat & Seafood, Paper & Cleaning & Home"
ABRPL,Rutters Farm Store,79004 Fleming Run,Ripley,OK,74062,001-516-266-9964,"Breakfast & Cereal, Dairy & Eggs & Cheese, Fruits & Vegetables, Pet Care, Baby Care, Canned Goods & Soups, Condiments & Spice & Bake, Deli, Paper & Cleaning & Home, Personal Care & Health"
AGFF1,Pump-N-Pantry Of NY,37270 Flores Course Suite 844,Alexandria,AL,36250,556-998-9123,"Baby Care, Deli, Fruits & Vegetables, Personal Care & Health, Beverages, Pet Care"
AJQRT,Quick Chek Food Stores,538 Curtis Extensions Apt. 943,Harris,NC,28074,707-518-8853x794,"Baby Care, Cookies & Snacks & Candy, Fruits & Vegetables"
AMT4C,Popeye Shell Superstop,548 Peter Courts,Hudson,NY,12534,113-417-6995x38477,"Breakfast & Cereal, Canned Goods & Soups, Condiments & Spice & Bake, Deli, Frozen Foods, Pet Care, Baby Care, Bread & Bakery, Cookies & Snacks & Candy, Fruits & Vegetables, Grains & Pasta & Sides, Meat & Seafood, Paper & Cleaning & Home, Personal Care & Health"
AR4Q8,Cefco,129 Kelly Radial Apt. 503,Rutherford,NJ,7070,499.539.8813x3000,"Beverages, Condiments & Spice & Bake, Cookies & Snacks & Candy, Deli, Frozen Foods, Baby Care, Bread & Bakery, Breakfast & Cereal, Canned Goods & Soups, Dairy & Eggs & Cheese, Fruits & Vegetables, Meat & Seafood, Paper & Cleaning & Home, Personal Care & Health, Pet Care"
ARS5U,Super Quik Inc,89290 Rachel Prairie Apt. 378,Endicott,NE,68350,001-630-655-6449x981,"Baby Care, Canned Goods & Soups, Frozen Foods, Meat & Seafood, Beverages, Cookies & Snacks & Candy, Grains & Pasta & Sides, Paper & Cleaning & Home"
AULSB,Machias Mainway,9412 Martinez Crossing,Mobile,AL,36670,(124)344-2618,"Condiments & Spice & Bake, Frozen Foods, Paper & Cleaning & Home, Beverages, Bread & Bakery, Canned Goods & Soups"
AV8VG,Machias Mainway,2012 Justin Valleys,Glenwood,WV,25520,001-288-029-5184x667,"Baby Care, Beverages, Breakfast & Cereal, Condiments & Spice & Bake, Cookies & Snacks & Candy, Meat & Seafood, Bread & Bakery, Canned Goods & Soups, Deli, Personal Care & Health, Pet Care"
AZUGT,Machias Mainway,619 Sarah Unions Suite 526,Kinsey,MT,59338,-8909,"Meat & Seafood, Grains & Pasta & Sides, Paper & Cleaning & Home, Personal Care & Health"
B4268,Plaid Pantries Inc,40078 Jennifer Route,Debary,FL,32713,788.740.1811x66764,"Deli, Grains & Pasta & Sides, Paper & Cleaning & Home, Bread & Bakery, Breakfast & Cereal, Canned Goods & Soups, Condiments & Spice & Bake, Fruits & Vegetables, Personal Care & Health, Pet Care"
B5XT7,Sunset Foods,65988 Parker Fields,Huntington,WV,25774,635-740-5190x2112,"Baby Care, Bread & Bakery, Breakfast & Cereal, Paper & Cleaning & Home, Canned Goods & Soups, Dairy & Eggs & Cheese, Frozen Foods, Grains & Pasta & Sides, Meat & Seafood, Personal Care & Health, Pet Care"
B6UIN,Mapco Express,99205 Travis Way,Altamont,IL,62411,072.371.0389x6484,"Beverages, Bread & Bakery, Cookies & Snacks & Candy, Fruits & Vegetables, Grains & Pasta & Sides, Personal Care & Health, Baby Care, Breakfast & Cereal, Canned Goods & Soups, Condiments & Spice & Bake, Dairy & Eggs & Cheese, Frozen Foods, Paper & Cleaning & Home, Pet Care"
B7XOX,Maay Convenient Inc,01972 Bridges Mission Apt. 560,Roanoke,VA,24038,5445261795,"Bread & Bakery, Pet Care, Canned Goods & Soups"
BHDBX,Victory Marketing Llc,9070 Kelly Plains Suite 527,Harrisburg,PA,17129,+1-273-523-9477x2944,"Bread & Bakery, Breakfast & Cereal, Condiments & Spice & Bake, Dairy & Eggs & Cheese, Fruits & Vegetables, Grains & Pasta & Sides, Paper & Cleaning & Home, Personal Care & Health, Beverages, Cookies & Snacks & Candy, Deli, Frozen Foods, Meat & Seafood, Pet Care"
BIBX4,Dandy Mini Mart,631 James Trafficway,Lisbon,ND,58054,917.970.3724,"Breakfast & Cereal, Pet Care, Beverages"
BKIUG,Sunset Foods,412 Barbara Place,Sistersville,WV,26175,+1-376-546-4037x859,"Paper & Cleaning & Home, Breakfast & Cereal, Canned Goods & Soups, Dairy & Eggs & Cheese, Frozen Foods, Fruits & Vegetables, Meat & Seafood"
BMHTG,Machias Mainway,34755 Courtney Isle,Merizo,GU,96916,187-516-9301x04273,"Canned Goods & Soups, Cookies & Snacks & Candy, Paper & Cleaning & Home, Personal Care & Health, Frozen Foods"
BNDY3,Cubbys,5887 Paul Road,Perth Amboy,NJ,8861,106-498-8408,"Baby Care, Beverages, Condiments & Spice & Bake, Dairy & Eggs & Cheese, Deli, Fruits & Vegetables, Grains & Pasta & Sides, Meat & Seafood, Bread & Bakery, Canned Goods & Soups, Cookies & Snacks & Candy, Frozen Foods, Paper & Cleaning & Home, Personal Care & Health, Pet Care"
BOMU1,Victory Marketing Llc,37089 George Islands Apt. 472,Centreville,MD,21617,(016)967-6836x318,"Beverages, Bread & Bakery, Condiments & Spice & Bake, Deli, Frozen Foods, Grains & Pasta & Sides, Meat & Seafood, Personal Care & Health, Baby Care, Dairy & Eggs & Cheese, Fruits & Vegetables, Paper & Cleaning & Home"
BSBIA,Victory Marketing Llc,0957 Cindy Keys Suite 621,Memphis,TN,38136,892708172,"Baby Care, Beverages, Bread & Bakery, Breakfast & Cereal, Deli, Frozen Foods, Grains & Pasta & Sides, Meat & Seafood, Paper & Cleaning & Home, Personal Care & Health, Pet Care, Canned Goods & Soups, Condiments & Spice & Bake, Cookies & Snacks & Candy, Dairy & Eggs & Cheese, Fruits & Vegetables"
BSSBT,Cefco,591 Roberto Port Apt. 475,Summit,UT,84772,001-684-440-3967x840,"Bread & Bakery, Breakfast & Cereal, Frozen Foods, Meat & Seafood, Personal Care & Health, Grains & Pasta & Sides, Paper & Cleaning & Home"
BTSUW,Machias Mainway,83102 Hill Bypass,Seattle,WA,98138,(368)351-2396x890,"Bread & Bakery, Breakfast & Cereal, Fruits & Vegetables, Paper & Cleaning & Home, Personal Care & Health, Baby Care, Canned Goods & Soups, Grains & Pasta & Sides, Meat & Seafood, Pet Care"
BWJC0,Golden Spike Travel Plaza,0793 Diana Rapids Apt. 433,Oakland,MS,38948,(689)226-5761,"Beverages, Deli, Paper & Cleaning & Home, Personal Care & Health, Pet Care, Baby Care, Bread & Bakery, Breakfast & Cereal"
C4N2L,Sheetz,3311 Carol Port Suite 469,Marshall,IL,62441,5208197189,"Breakfast & Cereal, Frozen Foods, Baby Care, Bread & Bakery, Canned Goods & Soups, Condiments & Spice & Bake, Dairy & Eggs & Cheese, Deli, Fruits & Vegetables, Grains & Pasta & Sides, Paper & Cleaning & Home"
C6EQ7,Beasley Enterprises Inc,55160 Simmons Greens Apt. 613,Maryville,TN,37803,7144788568,"Bread & Bakery, Canned Goods & Soups, Fruits & Vegetables"
C7KJY,Plaid Pantries Inc,387 Christopher Landing Apt. 985,Cottleville,MO,63338,527-416-7933x4551,"Fruits & Vegetables, Grains & Pasta & Sides, Breakfast & Cereal, Condiments & Spice & Bake, Deli, Frozen Foods, Pet Care"
CAX0E,Golden Spike Travel Plaza,171 Andres Forge,Buffalo Lake,MN,55314,8416550646,"Baby Care, Bread & Bakery, Dairy & Eggs & Cheese, Paper & Cleaning & Home, Beverages, Breakfast & Cereal, Canned Goods & Soups, Cookies & Snacks & Candy, Deli, Frozen Foods, Fruits & Vegetables, Grains & Pasta & Sides, Meat & Seafood, Pet Care"
CD9S9,Machias Mainway,620 Alyssa Corner,Malverne,NY,11565,7406588227,"Breakfast & Cereal, Dairy & Eggs & Cheese, Frozen Foods, Fruits & Vegetables, Grains & Pasta & Sides, Meat & Seafood, Pet Care, Beverages, Paper & Cleaning & Home, Personal Care & Health"
CF4HY,Service Champ,38821 Tracy Trace Suite 663,Fultondale,AL,35068,752489510,"Baby Care, Beverages, Condiments & Spice & Bake, Dairy & Eggs & Cheese, Grains & Pasta & Sides, Cookies & Snacks & Candy, Fruits & Vegetables, Personal Care & Health, Pet Care"
CGNL1,Jim's Quick Stop,08940 Landry Field,Hubbardsville,NY,13355,705.074.2506x764,"Bread & Bakery, Breakfast & Cereal, Condiments & Spice & Bake, Deli, Frozen Foods, Grains & Pasta & Sides, Beverages, Cookies & Snacks & Candy, Dairy & Eggs & Cheese, Fruits & Vegetables, Pet Care"
CHPGE,Jim's Quick Stop,19737 Erica Fall,Wales Center,NY,14169,500-358-2211x27969,"Baby Care, Beverages, Canned Goods & Soups, Cookies & Snacks & Candy, Dairy & Eggs & Cheese, Condiments & Spice & Bake, Grains & Pasta & Sides"
CQTM4,Simonson Market,5319 Weaver Village,Saltillo,TX,75478,663.441.7222x3888,"Beverages, Bread & Bakery, Dairy & Eggs & Cheese, Deli, Fruits & Vegetables, Paper & Cleaning & Home, Personal Care & Health, Baby Care, Canned Goods & Soups, Condiments & Spice & Bake, Grains & Pasta & Sides, Meat & Seafood, Pet Care"
CR5T7,Sheetz,339 Russell Wells,Redrock,NM,88055,-9885,"Bread & Bakery, Condiments & Spice & Bake, Cookies & Snacks & Candy, Deli, Frozen Foods, Paper & Cleaning & Home, Personal Care & Health, Beverages, Breakfast & Cereal, Canned Goods & Soups, Fruits & Vegetables, Grains & Pasta & Sides, Meat & Seafood, Pet Care"
CRBII,Golden Spike Travel Plaza,533 Turner Burg Suite 900,Hamburg,MI,48139,416-133-8875,"Condiments & Spice & Bake, Cookies & Snacks & Candy, Dairy & Eggs & Cheese, Meat & Seafood, Personal Care & Health"
CTAQ0,Casey's Cove Convenience Store,184 Timothy Common Apt. 932,Miami,FL,33182,001-688-320-1726,"Baby Care, Beverages, Bread & Bakery, Deli, Meat & Seafood"
CUBUY,Mapco,231 Victor Hill,Monee,IL,60449,829.050.3133x610,"Beverages, Condiments & Spice & Bake, Fruits & Vegetables, Paper & Cleaning & Home, Bread & Bakery, Frozen Foods, Grains & Pasta & Sides"
CW5P7,Pump-N-Pantry Of NY,37166 Johnson Field,Niles,MI,49120,505.454.2261x02714,"Bread & Bakery, Breakfast & Cereal, Dairy & Eggs & Cheese, Meat & Seafood, Condiments & Spice & Bake, Cookies & Snacks & Candy, Deli, Personal Care & Health"
D08TS,Popeye Shell Superstop,7742 Kelsey Station Suite 278,West Milton,OH,45383,001-567-647-8282x250,"Breakfast & Cereal, Pet Care, Beverages, Bread & Bakery, Canned Goods & Soups, Personal Care & Health"
D2TKQ,Plaid Pantries Inc,5527 Katrina Ville Apt. 918,Marion,AR,72364,002.880.7009,"Deli, Pet Care, Baby Care, Breakfast & Cereal, Condiments & Spice & Bake, Frozen Foods, Fruits & Vegetables, Personal Care & Health"
D3O18,Super Quik Inc,83205 Erica Dale Suite 728,Bemus Point,NY,14712,+1-421-976-4839x3588,"Pet Care, Baby Care, Cookies & Snacks & Candy"
D4HJY,Lil' Champ,338 Hamilton Park,Pine Bluff,AR,71611,001-595-273-4545,"Canned Goods & Soups, Condiments & Spice & Bake, Dairy & Eggs & Cheese, Pet Care, Cookies & Snacks & Candy, Deli, Fruits & Vegetables, Paper & Cleaning & Home"
D9GDA,Cracker Barrel Stores Inc,0997 Bruce Extension,Drasco,AR,72530,+1-491-731-9704x060,"Beverages, Bread & Bakery, Fruits & Vegetables, Breakfast & Cereal, Canned Goods & Soups, Condiments & Spice & Bake, Cookies & Snacks & Candy, Deli, Grains & Pasta & Sides, Meat & Seafood, Paper & Cleaning & Home"
DQATU,Victory Marketing Llc,8495 Kimberly Key Apt. 397,Tynan,TX,78391,001-290-823-7725x416,"Canned Goods & Soups, Cookies & Snacks & Candy, Dairy & Eggs & Cheese, Paper & Cleaning & Home, Personal Care & Health, Baby Care, Breakfast & Cereal, Deli, Frozen Foods, Fruits & Vegetables, Grains & Pasta & Sides, Meat & Seafood, Pet Care"
DSKWY,Baum's Mercantile,7854 Ibarra Divide Apt. 380,Buckeye,AZ,85326,978-501-1051x00496,"Beverages, Frozen Foods, Fruits & Vegetables"
DV8C3,Elnemr Enterprises Inc,92599 Green Lock,Danville,IL,61834,767.587.3180x67261,"Frozen Foods, Pet Care, Deli, Personal Care & Health"
DZ3S4,Plaid Pantry,87151 Joseph Viaduct Apt. 754,Presidio,TX,79845,916-203-8498,"Baby Care, Condiments & Spice & Bake, Cookies & Snacks & Candy, Dairy & Eggs & Cheese, Fruits & Vegetables, Grains & Pasta & Sides, Pet Care, Beverages, Bread & Bakery, Canned Goods & Soups, Deli, Meat & Seafood, Paper & Cleaning & Home, Personal Care & Health"
E0HTC,Fasmart,7269 Cruz Roads,Wildwood,NJ,8260,577.933.3693,"Beverages, Breakfast & Cereal, Cookies & Snacks & Candy, Deli, Fruits & Vegetables, Grains & Pasta & Sides, Meat & Seafood, Personal Care & Health, Baby Care, Bread & Bakery, Canned Goods & Soups, Condiments & Spice & Bake, Dairy & Eggs & Cheese, Frozen Foods, Paper & Cleaning & Home, Pet Care"
E2F4D,Cracker Barrel Stores Inc,60667 Maurice Drive,Oneida,WI,54155,723-284-2563,"Beverages, Canned Goods & Soups, Dairy & Eggs & Cheese, Baby Care, Breakfast & Cereal, Condiments & Spice & Bake"
E5SJO,Country Market,92291 Barnett Parks Apt. 801,Brussels,IL,62013,+1-200-419-9418x8712,"Beverages, Bread & Bakery, Condiments & Spice & Bake, Cookies & Snacks & Candy, Fruits & Vegetables, Meat & Seafood, Paper & Cleaning & Home, Pet Care, Baby Care, Breakfast & Cereal, Canned Goods & Soups, Deli, Frozen Foods, Grains & Pasta & Sides, Personal Care & Health"
EFZC1,Cefco,00510 Kayla Haven,Bronx,NY,10474,403.516.7218x632,"Beverages, Bread & Bakery, Canned Goods & Soups, Cookies & Snacks & Candy, Deli, Frozen Foods, Grains & Pasta & Sides, Meat & Seafood, Pet Care, Baby Care, Breakfast & Cereal, Dairy & Eggs & Cheese, Fruits & Vegetables, Paper & Cleaning & Home"
EHN88,Fasmart,24591 Smith Brook,Cleveland,TN,37364,719.453.2472x568,"Beverages, Breakfast & Cereal, Bread & Bakery, Cookies & Snacks & Candy, Dairy & Eggs & Cheese, Deli, Fruits & Vegetables, Grains & Pasta & Sides, Personal Care & Health"
ES4MT,Dandy Mini Mart,2732 Jason Lane,Lebam,WA,98554,001-663-175-4662x022,"Bread & Bakery, Condiments & Spice & Bake, Grains & Pasta & Sides, Pet Care"
ES7Y4,Rutters Farm Store,1237 Cortez Shores Suite 566,Mc Adenville,NC,28101,(927)780-4698,"Baby Care, Beverages, Condiments & Spice & Bake, Pet Care, Dairy & Eggs & Cheese, Deli"
EZ72N,Popeye Shell Superstop,55323 White Coves,Winston Salem,NC,27115,+1-739-543-5653x5248,"Beverages, Cookies & Snacks & Candy, Frozen Foods, Paper & Cleaning & Home, Personal Care & Health, Baby Care, Canned Goods & Soups, Dairy & Eggs & Cheese, Deli, Grains & Pasta & Sides, Meat & Seafood, Pet Care"
F0ERJ,Border Station,205 Hernandez Stream,Claremont,SD,57432,956-043-9910,"Grains & Pasta & Sides, Personal Care & Health, Condiments & Spice & Bake, Cookies & Snacks & Candy, Fruits & Vegetables, Pet Care"
F56Z4,Service Champ,76313 Ramos Cove,Crocketts Bluff,AR,72038,001-020-060-1221,"Condiments & Spice & Bake, Deli, Meat & Seafood, Pet Care, Bread & Bakery, Breakfast & Cereal, Frozen Foods, Fruits & Vegetables, Grains & Pasta & Sides, Paper & Cleaning & Home, Personal Care & Health"
F5LEJ,Irving Oil Corp,0443 Brett Hills,Stacyville,ME,4777,437-864-4188x5639,"Baby Care, Beverages, Bread & Bakery, Breakfast & Cereal, Condiments & Spice & Bake, Dairy & Eggs & Cheese, Deli, Grains & Pasta & Sides, Meat & Seafood, Paper & Cleaning & Home, Personal Care & Health, Pet Care, Cookies & Snacks & Candy, Frozen Foods, Fruits & Vegetables"
F6ZK0,Maay Convenient Inc,2769 Erin Harbor Suite 968,Carrolls,WA,98609,8507827136,"Canned Goods & Soups, Cookies & Snacks & Candy, Frozen Foods, Grains & Pasta & Sides, Breakfast & Cereal, Condiments & Spice & Bake, Dairy & Eggs & Cheese"
FAD35,Popeye Shell Superstop,051 Johnson Flat,Nash,OK,73761,301-840-9727x449,"Canned Goods & Soups, Condiments & Spice & Bake, Bread & Bakery, Breakfast & Cereal, Fruits & Vegetables, Personal Care & Health, Pet Care"
FCOVT,Hillcrest,432 Jennifer Oval Apt. 969,Memphis,TN,38177,704.350.6593,"Beverages, Breakfast & Cereal, Deli, Frozen Foods, Fruits & Vegetables, Grains & Pasta & Sides, Paper & Cleaning & Home, Personal Care & Health, Pet Care, Bread & Bakery, Cookies & Snacks & Candy, Meat & Seafood"
FCR45,Cracker Barrel Stores Inc,1378 Ronald Forest,Manitou Beach,MI,49253,+1-749-590-3394x1837,"Canned Goods & Soups, Dairy & Eggs & Cheese, Deli, Frozen Foods, Fruits & Vegetables, Grains & Pasta & Sides, Meat & Seafood, Personal Care & Health, Baby Care, Beverages, Bread & Bakery, Condiments & Spice & Bake, Paper & Cleaning & Home, Pet Care"
FFAZF,Beasley Enterprises Inc,2583 Troy Trafficway Apt. 262,Bridgeport,CA,93517,(578)973-1207,"Condiments & Spice & Bake, Cookies & Snacks & Candy, Beverages, Bread & Bakery, Grains & Pasta & Sides, Meat & Seafood, Paper & Cleaning & Home"
FIB83,Cracker Barrel Stores Inc,4210 Williams Square Suite 169,Oakton,VA,22124,-5610,"Baby Care, Beverages, Bread & Bakery, Condiments & Spice & Bake, Fruits & Vegetables, Grains & Pasta & Sides, Pet Care, Breakfast & Cereal, Canned Goods & Soups, Cookies & Snacks & Candy, Dairy & Eggs & Cheese, Deli, Frozen Foods, Meat & Seafood, Paper & Cleaning & Home, Personal Care & Health"
FIY4K,Cubbys,69229 Melissa Point,Manchester,TN,37349,091.938.5282x187,"Baby Care, Bread & Bakery, Canned Goods & Soups, Dairy & Eggs & Cheese, Deli, Fruits & Vegetables, Meat & Seafood, Beverages, Breakfast & Cereal, Cookies & Snacks & Candy, Paper & Cleaning & Home, Personal Care & Health, Pet Care"
FK2B5,Cracker Barrel Stores Inc,99306 Padilla Ville,Bomont,WV,25030,036-929-4785x9381,"Baby Care, Bread & Bakery, Canned Goods & Soups, Frozen Foods, Grains & Pasta & Sides, Beverages, Cookies & Snacks & Candy, Dairy & Eggs & Cheese, Deli, Meat & Seafood, Paper & Cleaning & Home, Personal Care & Health, Pet Care"
FNET8,Casey's Cove Convenience Store,7423 Spencer Street Apt. 258,West Chatham,MA,2669,137.692.1788,"Baby Care, Beverages, Bread & Bakery, Cookies & Snacks & Candy, Fruits & Vegetables, Personal Care & Health, Pet Care, Canned Goods & Soups, Dairy & Eggs & Cheese, Grains & Pasta & Sides"
FNJXE,Pump-N-Pantry Of NY,52140 Pham Gardens,Berlin Center,OH,44401,(277)232-8363,"Beverages, Deli, Frozen Foods, Fruits & Vegetables, Grains & Pasta & Sides, Personal Care & Health, Baby Care, Bread & Bakery, Breakfast & Cereal, Meat & Seafood, Pet Care"
FPQNI,Border Station,664 Patterson Manors,Tarawa Terrace,NC,28543,001-962-937-0037x050,"Baby Care, Beverages, Canned Goods & Soups, Dairy & Eggs & Cheese, Deli, Bread & Bakery, Breakfast & Cereal, Condiments & Spice & Bake, Cookies & Snacks & Candy, Fruits & Vegetables, Meat & Seafood"
FW8ZT,Cefco,748 Tracy Radial Suite 820,Moore,TX,78057,3442040809,"Bread & Bakery, Deli, Grains & Pasta & Sides, Meat & Seafood, Personal Care & Health, Pet Care, Baby Care, Breakfast & Cereal, Canned Goods & Soups, Condiments & Spice & Bake, Cookies & Snacks & Candy, Dairy & Eggs & Cheese"
FWJY6,Popeye Shell Superstop,67797 Christina Falls Apt. 320,Willsboro,NY,12996,929.982.5405x39083,"Baby Care, Fruits & Vegetables, Canned Goods & Soups"
FX0RG,6-Twelve Convenient-Mart Inc,025 Barron Pine,Berlin Center,OH,44401,001-965-695-7485,"Baby Care, Bread & Bakery, Canned Goods & Soups, Frozen Foods, Fruits & Vegetables, Meat & Seafood"
G28Y1,Rutters Farm Store,7787 Alex Dale Apt. 680,Estacada,OR,97023,2269020955,"Meat & Seafood, Paper & Cleaning & Home, Breakfast & Cereal, Canned Goods & Soups"
G29KT,Express Mart Stores,806 Brad Unions,Niantic,IL,62551,965.587.0063x1816,"Baby Care, Breakfast & Cereal, Canned Goods & Soups, Dairy & Eggs & Cheese, Frozen Foods, Fruits & Vegetables, Bread & Bakery, Grains & Pasta & Sides"
G626N,Super Quik Inc,06795 Paula Oval,Union Springs,AL,36089,2766172238,"Baby Care, Beverages, Breakfast & Cereal, Condiments & Spice & Bake, Deli, Frozen Foods, Fruits & Vegetables, Grains & Pasta & Sides, Bread & Bakery, Canned Goods & Soups, Cookies & Snacks & Candy, Meat & Seafood, Personal Care & Health"
G6TQY,Pit Row,580 Reese Point Suite 590,Huntsville,AL,35802,(509)708-7624x987,"Baby Care, Canned Goods & Soups, Dairy & Eggs & Cheese, Fruits & Vegetables, Grains & Pasta & Sides, Meat & Seafood, Paper & Cleaning & Home, Personal Care & Health, Bread & Bakery, Breakfast & Cereal, Condiments & Spice & Bake, Deli, Frozen Foods"
G9N3Z,Simonson Market,155 Savage Oval,Ojai,CA,93024,+1-705-140-2703x6293,"Baby Care, Breakfast & Cereal, Condiments & Spice & Bake, Meat & Seafood, Bread & Bakery, Cookies & Snacks & Candy, Frozen Foods, Pet Care"
G9V7E,Maay Convenient Inc,106 Cervantes Junction,Long Island City,NY,11120,5825875952,"Bread & Bakery, Breakfast & Cereal, Deli, Fruits & Vegetables, Pet Care, Beverages, Canned Goods & Soups, Dairy & Eggs & Cheese"
GBNTS,Quick Chek Food Stores,5350 Thomas Neck Suite 806,Whittier,NC,28789,001-858-644-8672x168,"Baby Care, Bread & Bakery, Breakfast & Cereal, Canned Goods & Soups, Cookies & Snacks & Candy, Dairy & Eggs & Cheese, Frozen Foods, Grains & Pasta & Sides, Meat & Seafood, Personal Care & Health, Pet Care, Beverages, Condiments & Spice & Bake, Deli, Fruits & Vegetables, Paper & Cleaning & Home"
GJNJB,Cefco,0767 Holly Fords,Mozier,IL,62070,519-060-6935,"Baby Care, Beverages, Condiments & Spice & Bake, Fruits & Vegetables, Meat & Seafood, Personal Care & Health, Breakfast & Cereal, Grains & Pasta & Sides, Paper & Cleaning & Home, Pet Care"
GKQYL,Plaid Pantries Inc,8827 Teresa Ways,Carrollton,OH,44615,(002)623-6127x003,"Baby Care, Bread & Bakery, Grains & Pasta & Sides"
GP4ET,Irving Oil Corp,4900 Danielle Heights,Raleigh,NC,27611,437-515-0940x2427,"Baby Care, Beverages, Breakfast & Cereal, Canned Goods & Soups, Cookies & Snacks & Candy, Dairy & Eggs & Cheese, Paper & Cleaning & Home, Bread & Bakery, Condiments & Spice & Bake, Frozen Foods"
GVFVV,Stripes Llc,69487 Shaun Spring,Manville,NJ,8835,650.058.2640x6543,"Bread & Bakery, Deli, Frozen Foods, Breakfast & Cereal, Cookies & Snacks & Candy, Dairy & Eggs & Cheese, Personal Care & Health"
GVGHO,Irving Oil Corp,8970 Hall Junctions Apt. 335,El Paso,TX,79942,(807)446-0048x59204,"Dairy & Eggs & Cheese, Fruits & Vegetables, Cookies & Snacks & Candy, Frozen Foods, Grains & Pasta & Sides, Meat & Seafood"
H39E9,Hillcrest,313 Wade Stream Suite 675,Raphine,VA,24472,411-366-9299x4144,"Breakfast & Cereal, Canned Goods & Soups, Cookies & Snacks & Candy, Fruits & Vegetables, Meat & Seafood, Personal Care & Health, Beverages, Grains & Pasta & Sides, Paper & Cleaning & Home"
H6IY1,Pump-N-Pantry Of NY,7967 Diane Summit,Cedarbluff,MS,39741,879.503.3439x5973,"Beverages, Grains & Pasta & Sides, Breakfast & Cereal, Cookies & Snacks & Candy, Pet Care"
H6QG4,Victory Marketing Llc,383 Sheppard River Suite 397,Atlanta,GA,30343,428-621-3139x169,"Fruits & Vegetables, Grains & Pasta & Sides, Meat & Seafood, Personal Care & Health, Baby Care, Dairy & Eggs & Cheese"
H99VD,Pump-N-Pantry Of NY,957 Cynthia Corners Suite 954,Baltimore,MD,21202,(061)078-8294x73745,"Canned Goods & Soups, Paper & Cleaning & Home, Personal Care & Health, Pet Care, Baby Care, Beverages, Breakfast & Cereal, Dairy & Eggs & Cheese, Deli, Grains & Pasta & Sides"
HAGUN,Sunset Foods,29640 Harris Landing,San Miguel,CA,93451,001-064-222-8617x044,"Baby Care, Breakfast & Cereal, Pet Care, Beverages, Cookies & Snacks & Candy, Personal Care & Health"
HD3J9,Simonson Market,226 Clayton Run,Shaftsbury,VT,5262,712-330-3768x2826,"Fruits & Vegetables, Baby Care, Breakfast & Cereal, Frozen Foods"
HGFPR,Sheetz,288 Miller Loop Suite 957,Cloverdale,IN,46120,9022202889,"Beverages, Cookies & Snacks & Candy, Dairy & Eggs & Cheese, Deli, Fruits & Vegetables, Paper & Cleaning & Home, Baby Care, Bread & Bakery, Canned Goods & Soups, Condiments & Spice & Bake, Frozen Foods, Grains & Pasta & Sides, Meat & Seafood, Personal Care & Health, Pet Care"
HI9JV,Simonson Market,4648 Roy Spring,Savannah,GA,31402,+1-855-844-0559x312,"Baby Care, Paper & Cleaning & Home, Personal Care & Health, Beverages, Bread & Bakery, Frozen Foods"
HJ394,Fasmart,49781 Bell Route Suite 008,Hialeah,FL,33015,542-696-0665x46843,"Beverages, Breakfast & Cereal, Canned Goods & Soups, Condiments & Spice & Bake, Cookies & Snacks & Candy, Deli, Fruits & Vegetables, Grains & Pasta & Sides, Pet Care, Baby Care, Bread & Bakery, Meat & Seafood, Paper & Cleaning & Home, Personal Care & Health"
HJI4K,Maay Convenient Inc,08098 Victoria Walks,Thaxton,VA,24174,(550)454-8564x9313,"Condiments & Spice & Bake, Grains & Pasta & Sides, Pet Care, Baby Care, Beverages, Bread & Bakery, Breakfast & Cereal, Canned Goods & Soups, Cookies & Snacks & Candy, Dairy & Eggs & Cheese, Deli, Frozen Foods, Fruits & Vegetables, Meat & Seafood, Paper & Cleaning & Home, Personal Care & Health"
HQCMP,Sheetz,8536 Ryan Glens Suite 837,Alicia,AR,72410,(569)756-3409x2701,"Meat & Seafood, Personal Care & Health, Condiments & Spice & Bake, Pet Care"
HT30U,Casey's Cove Convenience Store,13913 Barbara Shoal,Danbury,WI,54830,143-403-6362,"Condiments & Spice & Bake, Cookies & Snacks & Candy, Frozen Foods, Meat & Seafood, Baby Care, Beverages, Bread & Bakery, Canned Goods & Soups, Deli, Fruits & Vegetables, Paper & Cleaning & Home, Personal Care & Health"
HU152,Rutters Farm Store,4825 Rose Mountain,Lodi,TX,75564,041-152-7115x6678,"Baby Care, Beverages, Paper & Cleaning & Home, Condiments & Spice & Bake, Cookies & Snacks & Candy, Dairy & Eggs & Cheese, Frozen Foods, Fruits & Vegetables, Meat & Seafood"
HWXUV,Wesco Oil CO,081 Bennett Bypass,Massena,NY,13662,+1-382-962-5516x9041,"Beverages, Breakfast & Cereal, Canned Goods & Soups, Pet Care"
HXUP6,Fasmart,5599 Nicholson Park,Scottsburg,VA,24589,(551)659-5337,"Breakfast & Cereal, Dairy & Eggs & Cheese, Deli, Personal Care & Health, Canned Goods & Soups, Condiments & Spice & Bake, Cookies & Snacks & Candy, Fruits & Vegetables, Paper & Cleaning & Home"
I1LKN,Pit Row,59510 Erica Islands Apt. 919,Colquitt,GA,39837,282.981.1474x3369,"Condiments & Spice & Bake, Cookies & Snacks & Candy, Dairy & Eggs & Cheese, Grains & Pasta & Sides, Personal Care & Health, Pet Care, Baby Care, Beverages, Bread & Bakery, Breakfast & Cereal, Deli, Fruits & Vegetables, Paper & Cleaning & Home"
I22U5,Hillcrest,43096 Bennett Ranch,Muse,PA,15350,383.628.1956x441,"Beverages, Condiments & Spice & Bake, Cookies & Snacks & Candy, Meat & Seafood, Grains & Pasta & Sides, Personal Care & Health"
I374Z,Lil' Champ,412 Shawn View,Palm Beach Gardens,FL,33418,337.237.1273,"Breakfast & Cereal, Paper & Cleaning & Home, Pet Care, Canned Goods & Soups, Frozen Foods"
I4R4M,Elnemr Enterprises Inc,501 Stewart Plains Suite 387,Quitman,TX,75783,(596)534-0649x74799,"Bread & Bakery, Frozen Foods, Canned Goods & Soups, Fruits & Vegetables, Paper & Cleaning & Home"
I5OZH,Super Quik Inc,384 Hernandez Fort,Dillsburg,PA,17019,287-258-3776x941,"Cookies & Snacks & Candy, Fruits & Vegetables, Breakfast & Cereal, Personal Care & Health"
I70TD,Quick Chek Food Stores,648 Cunningham Pine,Hartsville,IN,47244,040-873-0174,"Breakfast & Cereal, Dairy & Eggs & Cheese, Frozen Foods, Cookies & Snacks & Candy, Grains & Pasta & Sides, Meat & Seafood, Paper & Cleaning & Home, Personal Care & Health"
I77FZ,7-Eleven,17971 Kirk Junctions,Mcgregor,MN,55760,(715)273-3295x640,"Beverages, Breakfast & Cereal, Condiments & Spice & Bake, Deli, Fruits & Vegetables, Grains & Pasta & Sides, Meat & Seafood, Pet Care, Canned Goods & Soups, Dairy & Eggs & Cheese, Paper & Cleaning & Home, Personal Care & Health"
I9XF9,Stripes Llc,0739 Carpenter Ranch,Damascus,AR,72039,001-531-730-5392,"Breakfast & Cereal, Deli, Bread & Bakery, Grains & Pasta & Sides"
IDRWE,6-Twelve Convenient-Mart Inc,730 Jennifer Mews,Eagar,AZ,85925,126-543-0576x049,"Cookies & Snacks & Candy, Paper & Cleaning & Home, Personal Care & Health, Breakfast & Cereal, Frozen Foods"
IJA9S,Plaid Pantries Inc,314 Daniel Manors Suite 390,Fox Valley,IL,60599,604.840.8317x2915,"Baby Care, Breakfast & Cereal, Canned Goods & Soups, Grains & Pasta & Sides, Paper & Cleaning & Home, Pet Care, Bread & Bakery, Condiments & Spice & Bake, Dairy & Eggs & Cheese, Personal Care & Health"
IMHW1,Machias Mainway,5434 Walker Pike,Orlando,FL,32885,(172)674-1538x784,"Beverages, Condiments & Spice & Bake, Cookies & Snacks & Candy, Dairy & Eggs & Cheese, Fruits & Vegetables, Meat & Seafood, Paper & Cleaning & Home, Pet Care, Baby Care, Bread & Bakery, Breakfast & Cereal, Canned Goods & Soups, Deli, Frozen Foods, Grains & Pasta & Sides"
IRD1M,Dandy Mini Mart,94394 Kaufman Mission Suite 519,San Francisco,CA,94150,(947)944-3302,"Canned Goods & Soups, Condiments & Spice & Bake, Deli, Fruits & Vegetables, Pet Care, Baby Care, Beverages, Bread & Bakery, Breakfast & Cereal, Cookies & Snacks & Candy, Dairy & Eggs & Cheese, Frozen Foods, Meat & Seafood, Paper & Cleaning & Home, Personal Care & Health"
IUCKM,Spaceway Oil CO,603 James Lake Apt. 231,Houston,TX,77019,347-508-1489,"Personal Care & Health, Baby Care, Canned Goods & Soups, Dairy & Eggs & Cheese, Fruits & Vegetables"
IY0P9,Casey's Cove Convenience Store,825 Morgan Mountains Suite 214,Mount Hope,AL,35651,331.248.5509x23266,"Baby Care, Breakfast & Cereal, Canned Goods & Soups, Pet Care, Beverages, Bread & Bakery, Condiments & Spice & Bake, Dairy & Eggs & Cheese, Deli, Frozen Foods, Fruits & Vegetables, Grains & Pasta & Sides, Meat & Seafood, Paper & Cleaning & Home"
IY7DV,Cracker Barrel Stores Inc,96418 Delacruz Haven Apt. 077,Follansbee,WV,26037,211.278.1437,"Bread & Bakery, Paper & Cleaning & Home, Personal Care & Health, Pet Care, Beverages, Breakfast & Cereal, Frozen Foods, Fruits & Vegetables, Meat & Seafood"
IYJG5,Lil' Champ,96187 Walker Stream,Mobile,AL,36640,001-349-258-3212,"Baby Care, Cookies & Snacks & Candy, Dairy & Eggs & Cheese, Deli, Frozen Foods, Personal Care & Health, Beverages, Bread & Bakery, Breakfast & Cereal, Condiments & Spice & Bake, Grains & Pasta & Sides, Meat & Seafood, Pet Care"
J30MG,Stripes Llc,400 Carroll Manor Apt. 755,Marquand,MO,63655,(000)219-8493x764,"Breakfast & Cereal, Canned Goods & Soups, Condiments & Spice & Bake, Fruits & Vegetables, Personal Care & Health, Pet Care"
J3JKM,Simonson Market,7442 Samuel Parkway,Heart Butte,MT,59448,333-774-9499x858,"Canned Goods & Soups, Condiments & Spice & Bake, Deli, Frozen Foods, Paper & Cleaning & Home, Baby Care, Beverages, Bread & Bakery, Dairy & Eggs & Cheese, Grains & Pasta & Sides, Meat & Seafood"
J6HSY,Plaid Pantry,1695 Kerri Courts,Chincoteague Island,VA,23336,+1-009-383-0721x318,"Beverages, Breakfast & Cereal, Condiments & Spice & Bake"
J9X8P,Maay Convenient Inc,1595 Rice Rapids,Continental,OH,45831,809-726-5435,"Canned Goods & Soups, Condiments & Spice & Bake, Grains & Pasta & Sides, Meat & Seafood, Deli, Frozen Foods, Fruits & Vegetables"
JEIY9,Irving Oil Corp,3292 Carolyn Junction,Larimer,PA,15647,844.577.0100x650,"Breakfast & Cereal, Condiments & Spice & Bake, Frozen Foods, Grains & Pasta & Sides, Paper & Cleaning & Home, Canned Goods & Soups, Dairy & Eggs & Cheese, Personal Care & Health"
JESAR,Sheetz,5762 James Dale Apt. 860,Opa Locka,FL,33054,(318)168-6000,"Baby Care, Beverages, Bread & Bakery, Breakfast & Cereal, Canned Goods & Soups, Frozen Foods, Paper & Cleaning & Home, Personal Care & Health, Cookies & Snacks & Candy, Dairy & Eggs & Cheese, Fruits & Vegetables, Grains & Pasta & Sides"
JR3IY,Border Station,898 Combs Fall Suite 057,Devine,TX,78016,+1-885-075-0274x639,"Bread & Bakery, Breakfast & Cereal, Frozen Foods, Grains & Pasta & Sides, Meat & Seafood, Beverages, Condiments & Spice & Bake, Deli, Paper & Cleaning & Home, Personal Care & Health"
JSH16,Spaceway Oil CO,108 Taylor Points Suite 660,Eva,TN,38333,779-419-9339,"Baby Care, Beverages, Canned Goods & Soups, Cookies & Snacks & Candy, Frozen Foods, Fruits & Vegetables, Grains & Pasta & Sides, Meat & Seafood, Personal Care & Health, Bread & Bakery, Breakfast & Cereal, Condiments & Spice & Bake, Deli, Paper & Cleaning & Home, Pet Care"
K1V4C,Jackson Food Store,2336 Irwin Port Suite 289,Marble Falls,AR,72648,001-792-612-2160x285,"Baby Care, Canned Goods & Soups, Frozen Foods, Paper & Cleaning & Home, Condiments & Spice & Bake, Fruits & Vegetables, Meat & Seafood, Pet Care"
K36PR,Mapco,9544 Michael Station Suite 656,Scottsdale,AZ,85251,(882)796-7676x5104,"Dairy & Eggs & Cheese, Beverages, Paper & Cleaning & Home"
K6RVF,Rutters Farm Store,64284 Kelley Valley Apt. 109,Fort Worth,TX,76126,007.451.1305x532,"Beverages, Breakfast & Cereal, Condiments & Spice & Bake, Cookies & Snacks & Candy, Deli, Frozen Foods, Fruits & Vegetables, Grains & Pasta & Sides, Baby Care"
K7GAU,Express Mart Stores,5113 Pope Port,Burtrum,MN,56318,581.265.0820,"Bread & Bakery, Breakfast & Cereal, Condiments & Spice & Bake, Cookies & Snacks & Candy, Dairy & Eggs & Cheese, Grains & Pasta & Sides, Meat & Seafood, Baby Care, Canned Goods & Soups, Paper & Cleaning & Home, Pet Care"
K9E1M,Border Station,02187 House Via Suite 842,Arrowsmith,IL,61722,551.943.3460x6125,"Baby Care, Breakfast & Cereal, Condiments & Spice & Bake, Dairy & Eggs & Cheese, Deli, Fruits & Vegetables, Grains & Pasta & Sides, Personal Care & Health, Beverages, Bread & Bakery, Canned Goods & Soups, Cookies & Snacks & Candy, Meat & Seafood, Pet Care"
KCNOQ,Express Mart Stores,90427 Fernandez Manors Suite 413,Farmingdale,NY,11736,(905)482-4576x742,"Baby Care, Beverages, Condiments & Spice & Bake, Deli, Frozen Foods, Personal Care & Health, Bread & Bakery, Breakfast & Cereal, Canned Goods & Soups, Cookies & Snacks & Candy, Dairy & Eggs & Cheese, Fruits & Vegetables, Grains & Pasta & Sides, Meat & Seafood, Paper & Cleaning & Home, Pet Care"
KF81L,Sunset Foods,950 Breanna Mission Suite 318,Etna Green,IN,46524,235.855.8078x36855,"Beverages, Breakfast & Cereal, Canned Goods & Soups, Dairy & Eggs & Cheese, Baby Care, Bread & Bakery, Condiments & Spice & Bake, Cookies & Snacks & Candy, Deli, Frozen Foods, Grains & Pasta & Sides, Meat & Seafood, Paper & Cleaning & Home"
KGVM4,Mapco,227 Craig Creek Apt. 465,Goshen,IN,46527,(259)379-7851,"Bread & Bakery, Dairy & Eggs & Cheese, Deli, Frozen Foods, Grains & Pasta & Sides, Pet Care, Baby Care, Beverages, Breakfast & Cereal, Canned Goods & Soups, Condiments & Spice & Bake, Cookies & Snacks & Candy, Fruits & Vegetables, Meat & Seafood, Paper & Cleaning & Home, Personal Care & Health"
KMJVY,Beasley Enterprises Inc,80060 Melissa Ville,West,MS,39192,912.362.9467x390,"Canned Goods & Soups, Cookies & Snacks & Candy, Baby Care, Fruits & Vegetables, Grains & Pasta & Sides, Meat & Seafood, Paper & Cleaning & Home, Personal Care & Health"
KPM4N,Dandy Mini Mart,1732 Jerry Hills Suite 841,Shaftsbury,VT,5262,6331246185,"Baby Care, Canned Goods & Soups, Condiments & Spice & Bake, Deli, Personal Care & Health, Beverages, Breakfast & Cereal, Cookies & Snacks & Candy, Fruits & Vegetables, Grains & Pasta & Sides, Paper & Cleaning & Home, Pet Care"
KPWY0,Pump-N-Pantry Of NY,569 Craig Well Apt. 918,Bowlegs,OK,74830,497.114.9275,"Bread & Bakery, Dairy & Eggs & Cheese, Frozen Foods, Fruits & Vegetables, Paper & Cleaning & Home, Personal Care & Health, Baby Care, Beverages, Breakfast & Cereal, Canned Goods & Soups, Condiments & Spice & Bake, Cookies & Snacks & Candy, Deli, Grains & Pasta & Sides, Meat & Seafood, Pet Care"
KYN21,Fasmart,09838 Ronald Meadow,Beersheba Springs,TN,37305,(716)055-0982,"Beverages, Paper & Cleaning & Home, Cookies & Snacks & Candy, Fruits & Vegetables"
KZ3J0,Wesco Oil CO,91720 Ramirez Plain,Anaheim,CA,92808,557.892.0610x9311,"Breakfast & Cereal, Deli, Grains & Pasta & Sides, Meat & Seafood, Personal Care & Health, Pet Care, Beverages, Bread & Bakery, Canned Goods & Soups, Cookies & Snacks & Candy, Frozen Foods, Fruits & Vegetables"
L38HG,Cefco,3287 Sandra Haven,Elmont,NY,11003,998-576-9469,"Baby Care, Dairy & Eggs & Cheese, Personal Care & Health"
LHSWE,Sheetz,1999 Mark Well,Navajo Dam,NM,87419,023-483-3611,"Beverages, Breakfast & Cereal, Canned Goods & Soups, Condiments & Spice & Bake, Dairy & Eggs & Cheese, Frozen Foods, Pet Care, Bread & Bakery, Deli, Fruits & Vegetables, Grains & Pasta & Sides, Meat & Seafood, Paper & Cleaning & Home, Personal Care & Health"
LJ7HH,Elnemr Enterprises Inc,195 Green Ranch,Ashmore,IL,61912,521-672-7580x7754,"Beverages, Bread & Bakery, Breakfast & Cereal, Condiments & Spice & Bake, Deli, Baby Care, Cookies & Snacks & Candy, Frozen Foods, Grains & Pasta & Sides"
LKTXB,Express Mart Stores,2613 Paul Street,Pahala,HI,96777,-9794,"Condiments & Spice & Bake, Fruits & Vegetables, Meat & Seafood, Paper & Cleaning & Home, Baby Care, Beverages"
LQNUN,Golden Spike Travel Plaza,385 Mullins Springs Apt. 106,Evansville,IN,47737,+1-498-530-7770x3148,"Beverages, Canned Goods & Soups, Paper & Cleaning & Home, Pet Care, Bread & Bakery, Breakfast & Cereal, Cookies & Snacks & Candy, Dairy & Eggs & Cheese, Deli, Frozen Foods, Fruits & Vegetables, Meat & Seafood, Personal Care & Health"
LXWG6,Fasmart,2561 Christopher Prairie,Cawker City,KS,67430,+1-277-532-9453x0878,"Cookies & Snacks & Candy, Frozen Foods, Paper & Cleaning & Home, Personal Care & Health, Pet Care"
M77DZ,Jackson Food Store,12581 Hensley Walks Apt. 807,Montezuma,IN,47862,(244)747-3480x12739,"Baby Care, Dairy & Eggs & Cheese, Grains & Pasta & Sides, Meat & Seafood"
M8P84,Beasley Enterprises Inc,278 Jessica Loaf,Nashville,TN,37236,+1-837-351-1501x650,"Paper & Cleaning & Home, Cookies & Snacks & Candy, Pet Care"
MB2MD,Golden Spike Travel Plaza,255 Teresa Ridge,Taconite,MN,55786,(807)351-2707x89898,"Beverages, Condiments & Spice & Bake, Dairy & Eggs & Cheese, Paper & Cleaning & Home, Pet Care, Bread & Bakery"
MY9U5,Mapco Express,964 House Circle,Tacoma,WA,98443,9935041513,"Baby Care, Breakfast & Cereal, Deli, Personal Care & Health, Beverages, Bread & Bakery, Cookies & Snacks & Candy, Frozen Foods, Fruits & Vegetables"
N4JNH,Plaid Pantries Inc,29085 Angela View Suite 471,Knoxville,TN,37923,(083)192-7010,"Cookies & Snacks & Candy, Meat & Seafood, Baby Care, Beverages, Bread & Bakery, Condiments & Spice & Bake, Dairy & Eggs & Cheese, Frozen Foods, Fruits & Vegetables, Grains & Pasta & Sides, Paper & Cleaning & Home, Personal Care & Health, Pet Care"
N5V0S,Cubbys,6359 Frank Island,Kattskill Bay,NY,12844,(603)115-8994x3091,"Baby Care, Breakfast & Cereal, Frozen Foods, Meat & Seafood, Pet Care, Beverages, Canned Goods & Soups, Condiments & Spice & Bake, Cookies & Snacks & Candy"
N74AQ,Stripes Llc,3530 Brittany Landing,Mount Kisco,NY,10549,001-514-500-3210x869,"Beverages, Bread & Bakery, Breakfast & Cereal, Canned Goods & Soups, Dairy & Eggs & Cheese, Deli, Meat & Seafood, Personal Care & Health, Pet Care, Baby Care, Condiments & Spice & Bake, Frozen Foods, Grains & Pasta & Sides, Paper & Cleaning & Home"
N7P0B,Cubbys,72352 Perez Path Apt. 697,Somerville,TN,38068,449-496-4423x6697,"Baby Care, Bread & Bakery, Breakfast & Cereal, Dairy & Eggs & Cheese, Frozen Foods, Personal Care & Health, Beverages, Cookies & Snacks & Candy, Paper & Cleaning & Home"
NAX4O,Irving Oil Corp,3451 Tammy Plains,Wheatfield,IN,46392,666-859-9514x10864,"Fruits & Vegetables, Condiments & Spice & Bake, Cookies & Snacks & Candy, Personal Care & Health, Pet Care"
NBO2D,Simonson Market,2220 Wright Lakes Suite 315,Hudson,IL,61748,001-949-476-8760x735,"Beverages, Breakfast & Cereal, Cookies & Snacks & Candy, Frozen Foods, Fruits & Vegetables, Grains & Pasta & Sides, Baby Care, Bread & Bakery, Canned Goods & Soups, Condiments & Spice & Bake, Dairy & Eggs & Cheese, Deli, Meat & Seafood, Personal Care & Health"
NIB66,Jim's Quick Stop,16900 Williams Centers,Galena,OH,43021,(513)484-3381,"Breakfast & Cereal, Condiments & Spice & Bake, Dairy & Eggs & Cheese, Deli, Frozen Foods, Personal Care & Health, Baby Care, Cookies & Snacks & Candy, Fruits & Vegetables, Grains & Pasta & Sides, Meat & Seafood, Paper & Cleaning & Home, Pet Care"
NJEIB,Super Quik Inc,229 Romero Mill,Brownsville,TX,78523,001-466-517-6971x741,"Canned Goods & Soups, Paper & Cleaning & Home, Pet Care, Deli, Fruits & Vegetables, Grains & Pasta & Sides"
NQCTF,Jim's Quick Stop,11409 Olivia Walks Suite 011,Dundee,OR,97115,615.363.7050x33048,"Bread & Bakery, Canned Goods & Soups, Condiments & Spice & Bake, Fruits & Vegetables, Baby Care, Beverages, Breakfast & Cereal, Dairy & Eggs & Cheese, Deli, Frozen Foods, Grains & Pasta & Sides, Paper & Cleaning & Home"
NT8S6,Beasley Enterprises Inc,875 Pugh Corners Suite 537,Munden,KS,66959,7437393577,"Bread & Bakery, Cookies & Snacks & Candy, Fruits & Vegetables, Condiments & Spice & Bake, Dairy & Eggs & Cheese, Meat & Seafood, Pet Care"
NTEVA,Lil' Champ,818 Johnson Fort,Fifield,WI,54524,001-228-857-7440x451,"Baby Care, Dairy & Eggs & Cheese, Deli, Fruits & Vegetables, Grains & Pasta & Sides, Pet Care"
NVNEA,Super Quik Inc,83723 West Curve Suite 394,Millis,MA,2054,851.422.4336x7470,"Bread & Bakery, Condiments & Spice & Bake, Deli, Fruits & Vegetables, Baby Care, Beverages, Dairy & Eggs & Cheese, Meat & Seafood, Pet Care"
NYD1F,Machias Mainway,54141 Hannah Fords Apt. 618,Fredonia,ND,58440,001-782-655-5894x711,"Condiments & Spice & Bake, Deli, Beverages, Bread & Bakery, Canned Goods & Soups, Meat & Seafood, Pet Care"
O5JJ4,Quick Chek Food Stores,05280 Hernandez Hollow Suite 416,Stark,KS,66775,001-716-396-0063x465,"Baby Care, Beverages, Breakfast & Cereal, Canned Goods & Soups, Cookies & Snacks & Candy, Dairy & Eggs & Cheese, Frozen Foods, Personal Care & Health"
O7HYF,Quick Chek Food Stores,08976 Young Square,Howard,SD,57349,797-217-9902x77489,"Beverages, Cookies & Snacks & Candy, Grains & Pasta & Sides, Meat & Seafood, Bread & Bakery, Dairy & Eggs & Cheese, Frozen Foods, Paper & Cleaning & Home, Personal Care & Health"
O8P7C,6-Twelve Convenient-Mart Inc,744 Simmons Fords Suite 946,Marsteller,PA,15760,614.647.3419,"Bread & Bakery, Grains & Pasta & Sides, Personal Care & Health, Breakfast & Cereal, Condiments & Spice & Bake, Pet Care"
OCOLY,Jackson Food Store,2354 Brown Inlet,Birmingham,AL,35233,(435)500-3047,"Breakfast & Cereal, Condiments & Spice & Bake, Deli, Frozen Foods, Grains & Pasta & Sides, Baby Care, Canned Goods & Soups, Cookies & Snacks & Candy, Dairy & Eggs & Cheese, Fruits & Vegetables, Meat & Seafood, Paper & Cleaning & Home, Personal Care & Health"
OK01O,Pump-N-Pantry Of NY,7912 Scott Trace Apt. 147,Long Point,IL,61333,001-089-660-2416x447,"Canned Goods & Soups, Pet Care, Breakfast & Cereal, Cookies & Snacks & Candy, Dairy & Eggs & Cheese, Fruits & Vegetables, Grains & Pasta & Sides"
OL2N6,Pit Row,037 Wesley Rue,Lawndale,IL,61751,001-187-928-5740,"Beverages, Bread & Bakery, Condiments & Spice & Bake, Deli, Grains & Pasta & Sides, Meat & Seafood, Paper & Cleaning & Home, Baby Care, Breakfast & Cereal, Canned Goods & Soups, Dairy & Eggs & Cheese, Fruits & Vegetables, Personal Care & Health, Pet Care"
OO0E6,Super Quik Inc,6318 Michelle Stream,Brush Creek,TN,38547,352-268-6809,"Condiments & Spice & Bake, Cookies & Snacks & Candy, Frozen Foods, Grains & Pasta & Sides, Meat & Seafood, Personal Care & Health, Beverages, Bread & Bakery, Dairy & Eggs & Cheese, Deli, Fruits & Vegetables, Paper & Cleaning & Home"
OQVXB,Lil' Champ,8170 Megan Ramp Apt. 160,Wilkesboro,NC,28697,001-148-128-8181x931,"Breakfast & Cereal, Canned Goods & Soups, Dairy & Eggs & Cheese, Fruits & Vegetables, Personal Care & Health, Baby Care, Beverages, Cookies & Snacks & Candy, Deli, Grains & Pasta & Sides, Meat & Seafood, Paper & Cleaning & Home, Pet Care"
OSKEM,Dandy Mini Mart,5602 Linda Rue,Valley Forge,PA,19496,001-925-995-5829x917,"Canned Goods & Soups, Condiments & Spice & Bake, Deli, Grains & Pasta & Sides, Meat & Seafood, Paper & Cleaning & Home, Personal Care & Health, Baby Care, Bread & Bakery, Cookies & Snacks & Candy, Dairy & Eggs & Cheese, Fruits & Vegetables, Pet Care"
OVSIS,Plaid Pantry,123 Wright Shoals Suite 855,Washington,DC,20520,772.812.8962,"Fruits & Vegetables, Personal Care & Health, Pet Care, Paper & Cleaning & Home"
OWVVA,Fasmart,6782 Frederick Loop,Austin,TX,78778,3573802724,"Beverages, Cookies & Snacks & Candy, Dairy & Eggs & Cheese, Deli, Frozen Foods, Meat & Seafood, Paper & Cleaning & Home, Canned Goods & Soups, Grains & Pasta & Sides, Pet Care"
OXPXL,Lil' Champ,401 Thomas Mission Suite 644,Culdesac,ID,83524,319-408-9771,"Breakfast & Cereal, Fruits & Vegetables, Cookies & Snacks & Candy, Grains & Pasta & Sides, Pet Care"
P1Q9D,Maay Convenient Inc,447 Jacob Fields Apt. 710,Edgar,FL,32149,933-364-4469,"Beverages, Bread & Bakery, Canned Goods & Soups, Deli, Fruits & Vegetables, Grains & Pasta & Sides, Meat & Seafood, Personal Care & Health, Baby Care, Breakfast & Cereal, Condiments & Spice & Bake, Cookies & Snacks & Candy, Dairy & Eggs & Cheese, Frozen Foods, Pet Care"
P4RIP,Cracker Barrel Stores Inc,934 Willis Burgs,Mount Carmel,UT,84755,9636146931,"Beverages, Cookies & Snacks & Candy, Deli, Fruits & Vegetables, Paper & Cleaning & Home, Baby Care, Breakfast & Cereal, Dairy & Eggs & Cheese, Frozen Foods, Grains & Pasta & Sides"
P4TYX,Golden Spike Travel Plaza,57451 Green Ferry,German Valley,IL,61039,(581)095-8519x939,"Beverages, Bread & Bakery, Meat & Seafood, Personal Care & Health, Baby Care, Canned Goods & Soups, Condiments & Spice & Bake, Cookies & Snacks & Candy, Dairy & Eggs & Cheese, Deli, Frozen Foods, Fruits & Vegetables, Grains & Pasta & Sides, Paper & Cleaning & Home, Pet Care"
P6FQ1,Cracker Barrel Stores Inc,457 Haley Radial Suite 026,Elmaton,TX,77440,+1-591-601-8941x819,"Bread & Bakery, Canned Goods & Soups, Frozen Foods, Fruits & Vegetables, Grains & Pasta & Sides, Pet Care, Beverages, Breakfast & Cereal, Condiments & Spice & Bake, Cookies & Snacks & Candy, Dairy & Eggs & Cheese, Deli, Meat & Seafood, Paper & Cleaning & Home, Personal Care & Health"
P6OR7,Sheetz,54109 Johnson Union Apt. 674,Beaverton,OR,97008,+1-288-414-6968x3380,"Bread & Bakery, Dairy & Eggs & Cheese, Fruits & Vegetables, Paper & Cleaning & Home, Breakfast & Cereal, Pet Care"
P87YO,7-Eleven,994 Jimenez Street Suite 344,Evarts,KY,40828,450-381-6700x74935,"Paper & Cleaning & Home, Personal Care & Health, Cookies & Snacks & Candy, Dairy & Eggs & Cheese"
P8OG7,Quick Chek Food Stores,53928 Kimberly Spur Apt. 478,Brisbin,PA,16620,628-126-2718,"Baby Care, Beverages, Bread & Bakery, Breakfast & Cereal, Condiments & Spice & Bake, Deli, Meat & Seafood, Personal Care & Health, Canned Goods & Soups, Cookies & Snacks & Candy, Dairy & Eggs & Cheese, Frozen Foods, Fruits & Vegetables, Grains & Pasta & Sides, Paper & Cleaning & Home, Pet Care"
PMAOO,Sheetz,112 Krista Locks,Manchester,NH,3101,116.013.6495,"Bread & Bakery, Deli, Grains & Pasta & Sides, Pet Care, Baby Care, Beverages, Breakfast & Cereal, Dairy & Eggs & Cheese, Meat & Seafood"
PTTH0,6-Twelve Convenient-Mart Inc,7059 Diana Plains,Clarkson,KY,42726,592.442.2678,"Bread & Bakery, Deli, Grains & Pasta & Sides, Pet Care, Breakfast & Cereal, Cookies & Snacks & Candy, Paper & Cleaning & Home"
PXQ0C,7-Eleven,98140 Jackson Brooks,Barnes City,IA,50027,902.645.5311x59399,"Grains & Pasta & Sides, Meat & Seafood, Breakfast & Cereal, Condiments & Spice & Bake, Deli, Paper & Cleaning & Home, Personal Care & Health"
Q1LI3,Jim's Quick Stop,333 Rhodes Pass,Patterson,NC,28661,474.793.3014x51308,"Breakfast & Cereal, Cookies & Snacks & Candy, Bread & Bakery"
Q3MKG,Mapco,16815 Flowers Hills Suite 405,Bridgeton,NJ,8302,001-449-342-9745,"Baby Care, Bread & Bakery, Breakfast & Cereal, Dairy & Eggs & Cheese, Deli, Paper & Cleaning & Home, Beverages, Condiments & Spice & Bake, Cookies & Snacks & Candy, Frozen Foods, Fruits & Vegetables, Grains & Pasta & Sides, Meat & Seafood, Personal Care & Health"
QDQDS,Simonson Market,996 Patel Mountain Apt. 786,Escatawpa,MS,39552,140.693.1594x162,"Beverages, Cookies & Snacks & Candy, Frozen Foods, Grains & Pasta & Sides"
QLAQJ,Golden Spike Travel Plaza,17485 Thompson Parks,Lerona,WV,25971,257.354.3354x60339,"Baby Care, Beverages, Cookies & Snacks & Candy, Dairy & Eggs & Cheese, Deli, Frozen Foods, Grains & Pasta & Sides, Paper & Cleaning & Home, Pet Care, Bread & Bakery, Breakfast & Cereal, Canned Goods & Soups, Condiments & Spice & Bake, Fruits & Vegetables, Personal Care & Health"
QOJK3,Lil' Champ,20063 Wilson Turnpike Apt. 806,Macon,GA,31207,(184)305-1445x9962,"Baby Care, Bread & Bakery, Cookies & Snacks & Candy, Deli, Frozen Foods, Meat & Seafood, Paper & Cleaning & Home, Beverages, Breakfast & Cereal, Canned Goods & Soups, Condiments & Spice & Bake, Dairy & Eggs & Cheese, Grains & Pasta & Sides, Pet Care"
QQ86P,Mapco,22425 Smith Terrace,Martin,OH,43445,350-803-1574x1518,"Bread & Bakery, Breakfast & Cereal, Frozen Foods, Fruits & Vegetables, Pet Care, Beverages, Canned Goods & Soups, Condiments & Spice & Bake, Dairy & Eggs & Cheese, Deli, Paper & Cleaning & Home"
QTB4W,Machias Mainway,12608 Perkins Stream Apt. 870,Rawson,OH,45881,001-367-575-2006,"Baby Care, Canned Goods & Soups, Condiments & Spice & Bake, Cookies & Snacks & Candy, Dairy & Eggs & Cheese, Deli, Fruits & Vegetables, Grains & Pasta & Sides, Paper & Cleaning & Home, Pet Care, Breakfast & Cereal"
QZJPF,Plaid Pantry,08026 Amy Bypass Suite 424,Townsend,DE,19734,+1-713-991-4165x175,"Canned Goods & Soups, Dairy & Eggs & Cheese, Paper & Cleaning & Home, Pet Care, Condiments & Spice & Bake, Frozen Foods, Meat & Seafood"
R0QWL,Mapco,140 Amanda Estate Suite 366,Montgomery,LA,71454,096.733.5515x63532,"Baby Care, Breakfast & Cereal, Canned Goods & Soups, Condiments & Spice & Bake, Dairy & Eggs & Cheese, Deli, Fruits & Vegetables, Meat & Seafood, Personal Care & Health, Beverages, Paper & Cleaning & Home, Pet Care"
R5Q61,7-Eleven,3655 Mitchell Shoal Apt. 574,Varnado,LA,70467,510-388-8136,"Baby Care, Beverages, Bread & Bakery, Dairy & Eggs & Cheese, Deli, Fruits & Vegetables, Meat & Seafood, Breakfast & Cereal, Cookies & Snacks & Candy, Grains & Pasta & Sides, Paper & Cleaning & Home, Personal Care & Health"
ROL71,Mapco,61911 Maria Extension Apt. 530,Lanoka Harbor,NJ,8734,592-693-4670x11063,"Breakfast & Cereal, Deli, Paper & Cleaning & Home"
RW80G,Pit Row,0660 John Pass,Beeler,KS,67518,001-380-410-9395x197,"Beverages, Condiments & Spice & Bake, Deli, Grains & Pasta & Sides, Paper & Cleaning & Home, Bread & Bakery, Canned Goods & Soups, Cookies & Snacks & Candy, Dairy & Eggs & Cheese, Meat & Seafood"
RWK79,Cubbys,00106 Jenny Alley,Hoskinston,KY,40844,360-651-2479x4943,"Baby Care, Bread & Bakery, Breakfast & Cereal, Deli, Fruits & Vegetables, Meat & Seafood, Paper & Cleaning & Home, Condiments & Spice & Bake, Cookies & Snacks & Candy, Dairy & Eggs & Cheese"
RZFLW,Cubbys,4590 Duarte Rapid Apt. 822,Charleston,WV,25311,+1-665-390-5090x464,"Breakfast & Cereal, Canned Goods & Soups, Cookies & Snacks & Candy, Dairy & Eggs & Cheese, Deli, Fruits & Vegetables, Grains & Pasta & Sides, Meat & Seafood, Pet Care, Condiments & Spice & Bake"
S1F36,Rutters Farm Store,0295 Smith Ridges,Chetek,WI,54728,+1-419-182-7935x590,"Baby Care, Bread & Bakery, Canned Goods & Soups, Dairy & Eggs & Cheese, Fruits & Vegetables, Grains & Pasta & Sides, Meat & Seafood, Pet Care, Beverages, Breakfast & Cereal, Condiments & Spice & Bake, Cookies & Snacks & Candy, Deli, Frozen Foods, Paper & Cleaning & Home, Personal Care & Health"
S21WE,Jim's Quick Stop,80953 Jackson Light Suite 663,Cassel,CA,96016,001-080-131-7922,"Dairy & Eggs & Cheese, Pet Care, Cookies & Snacks & Candy, Deli, Grains & Pasta & Sides"
S37JP,Country Market,3803 Kevin Crest Suite 491,Birmingham,AL,35294,072-287-0105,"Personal Care & Health, Canned Goods & Soups, Deli, Frozen Foods, Fruits & Vegetables, Grains & Pasta & Sides, Paper & Cleaning & Home"
S4YOY,Super Quik Inc,70193 Joshua Mountains,El Paso,TX,79908,(799)469-8729x6134,"Beverages, Bread & Bakery, Breakfast & Cereal, Canned Goods & Soups, Condiments & Spice & Bake, Cookies & Snacks & Candy, Frozen Foods, Personal Care & Health, Pet Care, Dairy & Eggs & Cheese, Deli, Fruits & Vegetables, Grains & Pasta & Sides, Paper & Cleaning & Home"
S6WJO,Machias Mainway,683 Rebecca Corners,Evansville,IN,47706,337-108-2643x437,"Bread & Bakery, Breakfast & Cereal, Canned Goods & Soups, Fruits & Vegetables, Grains & Pasta & Sides, Personal Care & Health, Cookies & Snacks & Candy, Dairy & Eggs & Cheese, Frozen Foods, Pet Care"
SB5IK,Quick Chek Food Stores,97788 Betty Meadows Suite 829,Starks,LA,70661,+1-708-864-1134x2496,"Cookies & Snacks & Candy, Personal Care & Health, Beverages"
SCPDY,Machias Mainway,8891 Kim Isle,Minneapolis,KS,67467,(731)939-3224x96610,"Baby Care, Breakfast & Cereal, Canned Goods & Soups, Deli, Frozen Foods, Fruits & Vegetables, Grains & Pasta & Sides, Paper & Cleaning & Home, Beverages, Bread & Bakery, Condiments & Spice & Bake, Cookies & Snacks & Candy, Dairy & Eggs & Cheese, Meat & Seafood, Personal Care & Health, Pet Care"
SEAXT,Cefco,4023 Michael Bridge,Burlington,VT,5405,(857)471-8683x93526,"Bread & Bakery, Breakfast & Cereal, Condiments & Spice & Bake, Cookies & Snacks & Candy, Frozen Foods, Fruits & Vegetables, Pet Care, Baby Care, Beverages, Canned Goods & Soups, Dairy & Eggs & Cheese, Deli, Grains & Pasta & Sides, Meat & Seafood, Paper & Cleaning & Home, Personal Care & Health"
SFZ1F,Quick Chek Food Stores,93250 Paul Cliff Apt. 535,West Barnstable,MA,2668,(304)734-0028x94121,"Bread & Bakery, Canned Goods & Soups, Meat & Seafood, Personal Care & Health, Baby Care, Beverages, Breakfast & Cereal, Condiments & Spice & Bake, Cookies & Snacks & Candy, Dairy & Eggs & Cheese, Deli, Frozen Foods, Grains & Pasta & Sides"
SG708,Cubbys,77311 Jessica Lodge Suite 291,Cincinnati,OH,45253,961-125-9852,"Baby Care, Bread & Bakery, Breakfast & Cereal, Canned Goods & Soups, Personal Care & Health, Pet Care, Condiments & Spice & Bake, Dairy & Eggs & Cheese, Deli, Fruits & Vegetables, Grains & Pasta & Sides, Paper & Cleaning & Home"
SJCSG,Cubbys,7964 Stokes Haven Apt. 271,Madrid,NY,13660,185-246-2491x32107,"Personal Care & Health, Baby Care, Condiments & Spice & Bake, Deli"
SQOXK,Popeye Shell Superstop,77010 Watson Pike,Sarahsville,OH,43779,923.920.9442,"Baby Care, Beverages, Canned Goods & Soups, Meat & Seafood, Personal Care & Health, Pet Care, Bread & Bakery, Breakfast & Cereal, Condiments & Spice & Bake, Cookies & Snacks & Candy, Dairy & Eggs & Cheese, Deli, Fruits & Vegetables, Grains & Pasta & Sides, Paper & Cleaning & Home"
SV681,Popeye Shell Superstop,200 Bryant Trafficway,Walsh,IL,62297,(908)966-0006x64814,"Beverages, Condiments & Spice & Bake, Dairy & Eggs & Cheese, Fruits & Vegetables, Grains & Pasta & Sides, Pet Care, Breakfast & Cereal, Cookies & Snacks & Candy, Meat & Seafood"
SYS1U,Service Champ,75048 Lindsey Pass,Schellsburg,PA,15559,138.088.9798,"Frozen Foods, Baby Care, Beverages"
SZI3N,Stripes Llc,61666 Taylor Islands Apt. 130,Orange Park,FL,32065,276.340.4102x46194,"Frozen Foods, Condiments & Spice & Bake, Paper & Cleaning & Home, Personal Care & Health"
T1XVJ,Baum's Mercantile,59351 Potter Mills,Virginia Beach,VA,23461,001-064-779-6261,"Baby Care, Cookies & Snacks & Candy, Grains & Pasta & Sides, Pet Care, Beverages, Bread & Bakery, Condiments & Spice & Bake, Dairy & Eggs & Cheese, Deli, Frozen Foods, Fruits & Vegetables, Personal Care & Health"
T5RSD,Beasley Enterprises Inc,285 Jason Rapids Apt. 564,North Salem,NH,3073,947-568-9864x9056,"Beverages, Canned Goods & Soups, Deli, Grains & Pasta & Sides, Baby Care, Bread & Bakery, Fruits & Vegetables, Meat & Seafood"
T7VTK,Casey's Cove Convenience Store,464 Mitchell Island,Fort Myers,FL,33965,470-792-2714x31892,"Dairy & Eggs & Cheese, Frozen Foods, Paper & Cleaning & Home, Pet Care, Canned Goods & Soups, Condiments & Spice & Bake, Cookies & Snacks & Candy, Grains & Pasta & Sides, Meat & Seafood"
T8DQH,Sunset Foods,61691 Fleming Manors Suite 962,Kipling,NC,27543,001-775-805-9436,"Baby Care, Breakfast & Cereal, Canned Goods & Soups, Dairy & Eggs & Cheese, Deli, Meat & Seafood, Personal Care & Health, Beverages, Condiments & Spice & Bake, Cookies & Snacks & Candy, Fruits & Vegetables, Grains & Pasta & Sides, Paper & Cleaning & Home, Pet Care"
T9O52,6-Twelve Convenient-Mart Inc,6919 White Flat Apt. 789,Fulton,KS,66738,001-276-631-9706x622,"Baby Care, Bread & Bakery, Pet Care, Breakfast & Cereal, Canned Goods & Soups, Cookies & Snacks & Candy, Deli, Frozen Foods"
TBOG4,Dandy Mini Mart,64225 Patricia Pass,Crockett,VA,24323,(697)272-5723,"Beverages, Bread & Bakery, Breakfast & Cereal, Canned Goods & Soups, Frozen Foods, Paper & Cleaning & Home, Pet Care, Condiments & Spice & Bake, Fruits & Vegetables, Grains & Pasta & Sides"
TDP0A,Border Station,7089 Price Lake,Mcchord Afb,WA,98438,809-056-9917,"Bread & Bakery, Condiments & Spice & Bake, Dairy & Eggs & Cheese, Deli, Grains & Pasta & Sides, Meat & Seafood, Pet Care, Cookies & Snacks & Candy, Frozen Foods, Fruits & Vegetables, Personal Care & Health"
TG6R5,Sheetz,79691 Johnson Parkways,Watertown,SD,57201,183-980-3234x00197,"Grains & Pasta & Sides, Meat & Seafood, Baby Care, Beverages, Canned Goods & Soups, Paper & Cleaning & Home, Pet Care"
THLUS,Jackson Food Store,3354 Betty Cliff,Houston,AK,99694,585.025.4631,"Bread & Bakery, Canned Goods & Soups, Dairy & Eggs & Cheese, Deli, Baby Care, Breakfast & Cereal, Condiments & Spice & Bake"
TMZ9R,Cubbys,5659 Crystal Curve Apt. 148,Goleta,CA,93199,003.186.9934x85166,"Condiments & Spice & Bake, Cookies & Snacks & Candy, Meat & Seafood, Personal Care & Health, Baby Care, Bread & Bakery, Dairy & Eggs & Cheese, Deli, Frozen Foods, Pet Care"
TUO27,Stripes Llc,9850 Donna Wells Apt. 211,Bend,OR,97709,+1-292-040-5569x987,"Bread & Bakery, Breakfast & Cereal, Grains & Pasta & Sides, Beverages, Condiments & Spice & Bake, Cookies & Snacks & Candy, Dairy & Eggs & Cheese, Fruits & Vegetables, Personal Care & Health"
TXYM4,Cubbys,38611 Williams Forge Apt. 222,Van Buren,IN,46991,-9814,"Beverages, Deli, Meat & Seafood, Paper & Cleaning & Home, Pet Care"
U21FB,Jackson Food Store,958 Eric Mountain Apt. 493,Watkins Glen,NY,14891,+1-297-412-7186x6952,"Frozen Foods, Grains & Pasta & Sides, Meat & Seafood, Personal Care & Health, Baby Care, Beverages, Bread & Bakery, Breakfast & Cereal, Canned Goods & Soups, Condiments & Spice & Bake, Cookies & Snacks & Candy, Dairy & Eggs & Cheese, Deli, Paper & Cleaning & Home"
U4IQO,Cracker Barrel Stores Inc,5630 Kyle Point,Palestine,OH,45352,(547)626-8885,"Beverages, Canned Goods & Soups, Grains & Pasta & Sides, Pet Care, Deli, Paper & Cleaning & Home"
UAU1O,Mapco,791 Perry Skyway,Clements,CA,95227,798-250-6377,"Bread & Bakery, Breakfast & Cereal, Personal Care & Health, Pet Care"
UGLK2,Baum's Mercantile,784 Howard Motorway,Venice,FL,34293,+1-731-381-2548x160,"Beverages, Bread & Bakery, Dairy & Eggs & Cheese, Deli, Paper & Cleaning & Home, Baby Care, Breakfast & Cereal, Canned Goods & Soups, Cookies & Snacks & Candy, Grains & Pasta & Sides, Meat & Seafood, Personal Care & Health"
UIZ5X,Country Market,590 Sanford Run Apt. 411,Seattle,WA,98151,(399)441-7561x23662,"Beverages, Canned Goods & Soups, Frozen Foods, Fruits & Vegetables, Grains & Pasta & Sides, Meat & Seafood, Pet Care, Bread & Bakery, Condiments & Spice & Bake, Cookies & Snacks & Candy, Deli"
UKKYH,Border Station,69135 Tamara Walk,Rio Linda,CA,95673,+1-369-142-8820x135,"Baby Care, Bread & Bakery, Breakfast & Cereal, Dairy & Eggs & Cheese, Deli, Frozen Foods, Meat & Seafood, Beverages, Condiments & Spice & Bake, Cookies & Snacks & Candy, Fruits & Vegetables, Grains & Pasta & Sides, Paper & Cleaning & Home, Personal Care & Health"
UNGSN,Machias Mainway,25179 Anthony Loop Suite 231,Cambria,CA,93428,1731127091,"Fruits & Vegetables, Grains & Pasta & Sides, Meat & Seafood, Baby Care, Beverages, Canned Goods & Soups, Condiments & Spice & Bake, Cookies & Snacks & Candy, Personal Care & Health, Pet Care"
UO5H8,Cracker Barrel Stores Inc,6445 Cynthia Coves,Myra,TX,76253,975.696.6370x15848,"Baby Care, Beverages, Condiments & Spice & Bake, Frozen Foods, Grains & Pasta & Sides, Meat & Seafood, Paper & Cleaning & Home, Personal Care & Health, Bread & Bakery, Breakfast & Cereal, Canned Goods & Soups, Cookies & Snacks & Candy, Dairy & Eggs & Cheese, Deli, Fruits & Vegetables, Pet Care"
UOWWI,Stripes Llc,0563 Gonzalez Course,Aurora,NE,68818,001-125-101-2840,"Baby Care, Bread & Bakery, Breakfast & Cereal, Frozen Foods, Grains & Pasta & Sides, Personal Care & Health, Pet Care, Condiments & Spice & Bake, Fruits & Vegetables"
UTTGU,Golden Spike Travel Plaza,835 Jessica Cliffs,Nunda,SD,57050,-5355,"Canned Goods & Soups, Paper & Cleaning & Home, Personal Care & Health, Pet Care"
UU677,Irving Oil Corp,3473 Eric Shoals Apt. 158,Miami,FL,33167,015-856-0238x70060,"Bread & Bakery, Deli, Fruits & Vegetables, Baby Care, Cookies & Snacks & Candy, Dairy & Eggs & Cheese, Grains & Pasta & Sides, Pet Care"
UWZ2B,Wesco Oil CO,69843 Steven Island,Rupert,ID,83350,588-853-3665x19985,"Baby Care, Canned Goods & Soups, Fruits & Vegetables, Pet Care"
UYQ5A,Fasmart,28623 Hubbard Views Apt. 666,Dobbs Ferry,NY,10522,001-688-954-7725x619,"Baby Care, Bread & Bakery, Canned Goods & Soups, Dairy & Eggs & Cheese, Deli, Fruits & Vegetables, Grains & Pasta & Sides, Meat & Seafood, Personal Care & Health, Pet Care, Beverages, Breakfast & Cereal, Condiments & Spice & Bake, Cookies & Snacks & Candy, Frozen Foods, Paper & Cleaning & Home"
V37LR,Golden Spike Travel Plaza,43439 Bonilla Shoals Apt. 514,Basom,NY,14013,511-800-0575x953,"Beverages, Bread & Bakery, Condiments & Spice & Bake, Deli, Grains & Pasta & Sides, Meat & Seafood, Paper & Cleaning & Home, Personal Care & Health, Baby Care, Breakfast & Cereal, Canned Goods & Soups, Cookies & Snacks & Candy, Frozen Foods, Fruits & Vegetables"
VB0UG,Beasley Enterprises Inc,863 Wheeler Knoll,Satsuma,AL,36572,+1-355-196-5035x9637,"Beverages, Canned Goods & Soups, Dairy & Eggs & Cheese, Grains & Pasta & Sides, Meat & Seafood, Personal Care & Health, Baby Care, Bread & Bakery, Breakfast & Cereal, Condiments & Spice & Bake, Cookies & Snacks & Candy, Frozen Foods, Fruits & Vegetables, Paper & Cleaning & Home, Pet Care"
VCL23,Dandy Mini Mart,07605 Russell Mountain,Seattle,WA,98138,878-090-3704,"Baby Care, Beverages, Condiments & Spice & Bake, Cookies & Snacks & Candy, Frozen Foods, Grains & Pasta & Sides, Paper & Cleaning & Home, Breakfast & Cereal, Canned Goods & Soups, Fruits & Vegetables, Meat & Seafood, Pet Care"
VDLRR,Jackson Food Store,842 Nicole Crossing,Veguita,NM,87062,+1-003-098-5995x9656,"Beverages, Bread & Bakery, Dairy & Eggs & Cheese, Grains & Pasta & Sides, Paper & Cleaning & Home, Breakfast & Cereal, Canned Goods & Soups, Condiments & Spice & Bake, Fruits & Vegetables, Meat & Seafood, Personal Care & Health"
VDV4X,Cracker Barrel Stores Inc,08116 Christopher Shoals,Radom,IL,62876,563-369-8454,"Dairy & Eggs & Cheese, Breakfast & Cereal, Canned Goods & Soups, Frozen Foods"
VE4LE,Cracker Barrel Stores Inc,95109 Arnold Wall,Mundelein,IL,60060,-8140,"Beverages, Condiments & Spice & Bake, Cookies & Snacks & Candy, Frozen Foods"
VF8FD,Lil' Champ,57858 Miller Springs,Palm Coast,FL,32164,+1-138-099-2676x618,"Baby Care, Beverages, Bread & Bakery, Breakfast & Cereal, Canned Goods & Soups, Condiments & Spice & Bake, Cookies & Snacks & Candy, Deli, Frozen Foods, Paper & Cleaning & Home, Fruits & Vegetables, Grains & Pasta & Sides, Meat & Seafood, Personal Care & Health, Pet Care"
VHNP8,Express Mart Stores,31969 Chavez Flat,Riverside,CA,92501,+1-414-859-9243x0516,"Baby Care, Bread & Bakery, Canned Goods & Soups, Frozen Foods, Fruits & Vegetables, Grains & Pasta & Sides, Personal Care & Health, Beverages, Breakfast & Cereal, Condiments & Spice & Bake, Cookies & Snacks & Candy, Dairy & Eggs & Cheese, Deli, Meat & Seafood, Paper & Cleaning & Home, Pet Care"
VK7PW,Wesco Oil CO,548 Meyer Course,Salt Lake City,UT,84128,001-642-341-1806x079,"Baby Care, Beverages, Canned Goods & Soups, Cookies & Snacks & Candy, Grains & Pasta & Sides, Meat & Seafood, Bread & Bakery, Breakfast & Cereal, Condiments & Spice & Bake, Deli, Fruits & Vegetables, Paper & Cleaning & Home, Pet Care"
VOOWH,Quick Chek Food Stores,0392 James Pike Apt. 358,Kingston,NY,12401,850-210-5722,"Beverages, Canned Goods & Soups, Cookies & Snacks & Candy, Dairy & Eggs & Cheese, Frozen Foods, Fruits & Vegetables, Grains & Pasta & Sides, Baby Care, Bread & Bakery, Breakfast & Cereal, Condiments & Spice & Bake, Deli, Meat & Seafood, Paper & Cleaning & Home, Personal Care & Health, Pet Care"
VRGID,Maay Convenient Inc,197 Megan Glen,Louisville,KY,40231,001-873-952-4840x512,"Baby Care, Bread & Bakery, Canned Goods & Soups, Deli, Frozen Foods, Personal Care & Health, Beverages, Condiments & Spice & Bake, Dairy & Eggs & Cheese, Meat & Seafood"
W6J6J,Plaid Pantry,6823 Stephen Islands Apt. 516,Birmingham,AL,35253,3763851032,"Beverages, Bread & Bakery, Breakfast & Cereal, Dairy & Eggs & Cheese, Frozen Foods, Pet Care, Cookies & Snacks & Candy, Deli, Grains & Pasta & Sides, Paper & Cleaning & Home, Personal Care & Health"
WBLFY,Stripes Llc,8249 Gonzalez Pass Apt. 138,Cumberland,IA,50843,(519)573-1040x9292,"Beverages, Bread & Bakery, Breakfast & Cereal, Canned Goods & Soups, Cookies & Snacks & Candy, Dairy & Eggs & Cheese, Fruits & Vegetables, Grains & Pasta & Sides, Paper & Cleaning & Home, Pet Care, Baby Care, Condiments & Spice & Bake, Deli, Frozen Foods, Meat & Seafood, Personal Care & Health"
WCD8M,Beasley Enterprises Inc,102 Cantu Cape,Brocton,IL,61917,001-469-429-5624x987,"Condiments & Spice & Bake, Dairy & Eggs & Cheese, Fruits & Vegetables, Personal Care & Health, Baby Care, Beverages, Bread & Bakery, Canned Goods & Soups, Cookies & Snacks & Candy, Grains & Pasta & Sides, Meat & Seafood, Paper & Cleaning & Home, Pet Care"
WEUEN,Jackson Food Store,64639 Rhonda Centers,Packwaukee,WI,53953,692.203.0357x9034,"Beverages, Canned Goods & Soups, Condiments & Spice & Bake, Deli, Personal Care & Health, Baby Care, Bread & Bakery, Cookies & Snacks & Candy, Dairy & Eggs & Cheese, Frozen Foods, Fruits & Vegetables, Meat & Seafood, Pet Care"
WFK9Y,Border Station,1023 Rachel Pike,Lone Pine,CA,93545,506-829-0025x984,"Baby Care, Beverages, Bread & Bakery, Canned Goods & Soups, Condiments & Spice & Bake, Fruits & Vegetables, Paper & Cleaning & Home, Pet Care, Cookies & Snacks & Candy, Deli, Frozen Foods, Grains & Pasta & Sides, Meat & Seafood"
WG5N0,Country Market,3244 Huang Point,Edgard,LA,70049,(986)141-3678x65930,"Canned Goods & Soups, Breakfast & Cereal, Dairy & Eggs & Cheese, Meat & Seafood, Paper & Cleaning & Home"
WGN08,Pit Row,791 Lisa Ranch Suite 832,Augusta Springs,VA,24411,+1-626-331-2863x685,"Canned Goods & Soups, Frozen Foods, Fruits & Vegetables, Paper & Cleaning & Home, Personal Care & Health, Baby Care, Breakfast & Cereal, Condiments & Spice & Bake, Cookies & Snacks & Candy, Dairy & Eggs & Cheese, Deli, Meat & Seafood"
WJ3DD,Sheetz,24516 Andre Trace Apt. 120,Orlando,FL,32858,001-449-259-5961x848,"Baby Care, Condiments & Spice & Bake, Fruits & Vegetables, Bread & Bakery, Canned Goods & Soups, Dairy & Eggs & Cheese, Deli, Frozen Foods, Grains & Pasta & Sides, Pet Care"
WP10Q,Popeye Shell Superstop,6815 Haynes Stream,Oklahoma City,OK,73126,(668)349-0800x66262,"Baby Care, Beverages, Canned Goods & Soups, Condiments & Spice & Bake, Cookies & Snacks & Candy, Dairy & Eggs & Cheese, Fruits & Vegetables, Grains & Pasta & Sides, Meat & Seafood, Personal Care & Health"
WQL1A,Victory Marketing Llc,3948 Osborn Freeway Apt. 704,Provo,UT,84604,+1-018-193-6222x7563,"Breakfast & Cereal, Canned Goods & Soups, Fruits & Vegetables, Baby Care, Cookies & Snacks & Candy, Deli, Paper & Cleaning & Home"
WTMYV,Cubbys,673 Gray Via Apt. 950,Arlington,VA,22209,(801)156-5737,"Beverages, Breakfast & Cereal, Canned Goods & Soups, Condiments & Spice & Bake, Cookies & Snacks & Candy, Frozen Foods, Meat & Seafood, Paper & Cleaning & Home, Personal Care & Health, Pet Care, Baby Care, Bread & Bakery, Dairy & Eggs & Cheese, Deli, Fruits & Vegetables, Grains & Pasta & Sides"
WW6Y6,Pit Row,68505 Martin Corner Suite 399,Elkhorn,WV,24831,4012482578,"Beverages, Cookies & Snacks & Candy, Fruits & Vegetables, Personal Care & Health, Pet Care, Bread & Bakery, Breakfast & Cereal, Condiments & Spice & Bake, Meat & Seafood, Paper & Cleaning & Home"
WW9OJ,Elnemr Enterprises Inc,855 Davis Port Suite 302,Sedalia,OH,43151,350-960-8084,"Baby Care, Bread & Bakery, Breakfast & Cereal, Cookies & Snacks & Candy, Dairy & Eggs & Cheese, Frozen Foods, Fruits & Vegetables, Grains & Pasta & Sides, Paper & Cleaning & Home, Personal Care & Health, Pet Care, Beverages, Canned Goods & Soups, Condiments & Spice & Bake, Deli, Meat & Seafood"
WY2YN,Lil' Champ,39979 Laura Pike Suite 384,Sheppard Afb,TX,76311,001-657-944-6340,"Baby Care, Breakfast & Cereal, Frozen Foods, Meat & Seafood, Bread & Bakery, Canned Goods & Soups, Condiments & Spice & Bake, Dairy & Eggs & Cheese, Deli, Fruits & Vegetables, Grains & Pasta & Sides, Paper & Cleaning & Home, Pet Care"
X17J6,7-Eleven,060 Sarah Turnpike,Cosmos,MN,56228,340.231.3777x4920,"Breakfast & Cereal, Dairy & Eggs & Cheese, Meat & Seafood, Personal Care & Health, Beverages, Bread & Bakery, Canned Goods & Soups, Cookies & Snacks & Candy, Deli, Paper & Cleaning & Home"
X1X7A,Pump-N-Pantry Of NY,27885 Joseph Spring,Mc Farland,KS,66501,001-444-642-4732,"Baby Care, Condiments & Spice & Bake, Cookies & Snacks & Candy, Frozen Foods, Meat & Seafood, Beverages, Bread & Bakery, Breakfast & Cereal, Canned Goods & Soups, Dairy & Eggs & Cheese, Paper & Cleaning & Home, Personal Care & Health, Pet Care"
X3WXV,Simonson Market,4577 Angela Crossroad,Atlanta,GA,30357,+1-788-243-3116x114,"Baby Care, Canned Goods & Soups, Deli, Meat & Seafood, Pet Care, Condiments & Spice & Bake, Frozen Foods, Fruits & Vegetables"
X52OV,Express Mart Stores,2023 Brian Dam,West Wardsboro,VT,5360,(205)972-6026x26324,"Beverages, Canned Goods & Soups, Cookies & Snacks & Candy, Dairy & Eggs & Cheese, Frozen Foods, Grains & Pasta & Sides, Meat & Seafood, Baby Care, Bread & Bakery, Breakfast & Cereal, Deli, Paper & Cleaning & Home, Personal Care & Health, Pet Care"
XDTN7,Express Mart Stores,26293 Klein Lodge Suite 001,New Castle,PA,16105,589-794-2180x1614,"Condiments & Spice & Bake, Deli, Grains & Pasta & Sides, Personal Care & Health, Breakfast & Cereal, Canned Goods & Soups, Dairy & Eggs & Cheese, Frozen Foods, Fruits & Vegetables, Meat & Seafood, Paper & Cleaning & Home, Pet Care"
XF7JM,Jim's Quick Stop,44018 Rita Extensions Apt. 395,Pittsburgh,PA,15251,763.788.3676x0051,"Baby Care, Condiments & Spice & Bake, Deli, Frozen Foods, Meat & Seafood, Personal Care & Health, Beverages, Bread & Bakery, Breakfast & Cereal, Canned Goods & Soups, Cookies & Snacks & Candy, Dairy & Eggs & Cheese, Grains & Pasta & Sides, Paper & Cleaning & Home, Pet Care"
XGK64,Service Champ,9606 Elliott Path Suite 830,Fort Stockton,TX,79735,(634)720-9065,"Baby Care, Meat & Seafood, Pet Care"
XGW8A,Golden Spike Travel Plaza,132 Ramirez Motorway,Tyaskin,MD,21865,5880020037,"Baby Care, Beverages, Cookies & Snacks & Candy, Dairy & Eggs & Cheese, Deli, Frozen Foods, Fruits & Vegetables, Meat & Seafood, Paper & Cleaning & Home, Bread & Bakery, Canned Goods & Soups, Condiments & Spice & Bake, Grains & Pasta & Sides, Pet Care"
XRVL3,Machias Mainway,138 Larry Way,Cape Elizabeth,ME,4107,495.856.4247x8297,"Baby Care, Beverages, Dairy & Eggs & Cheese, Fruits & Vegetables, Meat & Seafood, Paper & Cleaning & Home, Bread & Bakery, Breakfast & Cereal, Canned Goods & Soups, Condiments & Spice & Bake, Cookies & Snacks & Candy, Deli, Frozen Foods, Grains & Pasta & Sides, Personal Care & Health"
XSFYQ,Jackson Food Store,39271 Kimberly Stravenue Suite 677,Center Point,LA,71323,001-359-103-4961x505,"Baby Care, Beverages, Bread & Bakery, Breakfast & Cereal, Canned Goods & Soups, Cookies & Snacks & Candy, Deli, Fruits & Vegetables, Paper & Cleaning & Home, Personal Care & Health, Condiments & Spice & Bake, Dairy & Eggs & Cheese, Grains & Pasta & Sides, Meat & Seafood, Pet Care"
XTT7N,Rutters Farm Store,5014 Sampson Common,Scranton,PA,18519,(334)037-8968,"Beverages, Breakfast & Cereal, Dairy & Eggs & Cheese, Frozen Foods, Fruits & Vegetables, Grains & Pasta & Sides, Meat & Seafood, Paper & Cleaning & Home, Baby Care, Bread & Bakery, Canned Goods & Soups, Condiments & Spice & Bake, Cookies & Snacks & Candy, Deli, Personal Care & Health, Pet Care"
XUMD8,Simonson Market,07207 Smith Passage,Mountain Center,CA,92561,125.279.0026x78983,"Bread & Bakery, Condiments & Spice & Bake, Dairy & Eggs & Cheese, Frozen Foods, Paper & Cleaning & Home, Baby Care, Canned Goods & Soups, Cookies & Snacks & Candy, Personal Care & Health, Pet Care"
XV82A,Stripes Llc,84655 Powers Plaza Suite 529,Biggers,AR,72413,247.911.0541x459,"Baby Care, Beverages, Breakfast & Cereal"
XWYDM,Irving Oil Corp,34352 Brennan Fall Apt. 768,Newbury,VT,5051,672.864.6902x317,"Breakfast & Cereal, Canned Goods & Soups, Deli, Meat & Seafood, Pet Care, Baby Care, Beverages, Bread & Bakery, Condiments & Spice & Bake, Cookies & Snacks & Candy, Dairy & Eggs & Cheese, Frozen Foods, Fruits & Vegetables, Grains & Pasta & Sides, Paper & Cleaning & Home, Personal Care & Health"
YC3AR,Country Market,413 Martin Locks,Haugen,WI,54841,941-562-6740x37891,"Baby Care, Beverages, Breakfast & Cereal, Condiments & Spice & Bake, Deli, Paper & Cleaning & Home, Canned Goods & Soups, Cookies & Snacks & Candy, Frozen Foods, Fruits & Vegetables, Meat & Seafood, Pet Care"
YEG9C,Popeye Shell Superstop,193 Brenda Avenue Apt. 970,Tampa,FL,33681,+1-383-706-2715x8248,"Beverages, Bread & Bakery, Frozen Foods, Baby Care, Cookies & Snacks & Candy, Deli, Grains & Pasta & Sides, Meat & Seafood, Personal Care & Health"
YLPSD,Hillcrest,8866 Lawson Forge Suite 187,Russell,NY,13684,(845)385-5874,"Breakfast & Cereal, Canned Goods & Soups, Cookies & Snacks & Candy, Dairy & Eggs & Cheese, Fruits & Vegetables, Grains & Pasta & Sides, Meat & Seafood, Paper & Cleaning & Home, Baby Care, Condiments & Spice & Bake, Deli, Frozen Foods, Pet Care"
YMX4G,Casey's Cove Convenience Store,628 Karen Ferry,Rio Rancho,NM,87124,433-702-6545x65900,"Condiments & Spice & Bake, Cookies & Snacks & Candy, Frozen Foods, Fruits & Vegetables, Meat & Seafood, Pet Care, Baby Care, Deli"
YP8DM,Lil' Champ,973 Joseph Ridge Suite 870,Edinburgh,IN,46124,590-210-6142,"Beverages, Bread & Bakery, Condiments & Spice & Bake, Dairy & Eggs & Cheese, Deli, Paper & Cleaning & Home, Pet Care, Baby Care, Breakfast & Cereal, Canned Goods & Soups, Cookies & Snacks & Candy, Frozen Foods, Fruits & Vegetables, Grains & Pasta & Sides, Meat & Seafood, Personal Care & Health"
YPSG5,Pit Row,38145 Andrew Land Apt. 532,Finley,CA,95435,337-458-8042,"Bread & Bakery, Meat & Seafood, Deli"
YS74A,Express Mart Stores,75496 Mark Keys,Fort Shafter,HI,96858,001-583-783-8045x504,"Cookies & Snacks & Candy, Dairy & Eggs & Cheese, Deli, Fruits & Vegetables, Grains & Pasta & Sides, Personal Care & Health, Baby Care, Bread & Bakery, Breakfast & Cereal, Condiments & Spice & Bake, Frozen Foods, Meat & Seafood, Pet Care"
YSYH8,Sheetz,396 Andrea Mall Suite 450,La Verne,CA,91750,001-698-015-4688,"Baby Care, Breakfast & Cereal, Condiments & Spice & Bake, Dairy & Eggs & Cheese, Deli, Frozen Foods, Personal Care & Health, Beverages, Bread & Bakery, Canned Goods & Soups, Meat & Seafood, Pet Care"
Z4BL7,Cracker Barrel Stores Inc,2855 Giles Unions,Cape Girardeau,MO,63701,9108899804,"Breakfast & Cereal, Condiments & Spice & Bake, Deli, Frozen Foods, Grains & Pasta & Sides, Personal Care & Health, Pet Care, Bread & Bakery, Meat & Seafood"
ZDSRP,Border Station,5549 Kenneth Shoal Apt. 008,Hills,MN,56138,418.190.7972x7702,"Baby Care, Beverages, Breakfast & Cereal, Canned Goods & Soups, Cookies & Snacks & Candy, Deli, Frozen Foods, Fruits & Vegetables, Grains & Pasta & Sides, Meat & Seafood, Pet Care, Bread & Bakery, Condiments & Spice & Bake, Dairy & Eggs & Cheese, Paper & Cleaning & Home"
ZGBW2,Rutters Farm Store,006 James Wall Apt. 917,Pocahontas,AR,72455,001-155-269-1089x205,"Canned Goods & Soups, Deli, Paper & Cleaning & Home, Condiments & Spice & Bake, Cookies & Snacks & Candy"
ZLYE6,Service Champ,4363 Justin Wells Apt. 450,Madera,CA,93638,001-878-159-5867x980,"Baby Care, Dairy & Eggs & Cheese, Grains & Pasta & Sides, Paper & Cleaning & Home"
ZNOFW,Plaid Pantry,5272 Torres Track,Hazard,NE,68844,741.031.0350x8663,"Baby Care, Bread & Bakery, Condiments & Spice & Bake, Dairy & Eggs & Cheese, Frozen Foods, Fruits & Vegetables, Paper & Cleaning & Home, Breakfast & Cereal, Canned Goods & Soups, Personal Care & Health"
ZQ79W,6-Twelve Convenient-Mart Inc,9364 Sarah Route,Nashua,MT,59248,+1-013-828-1015x7793,"Bread & Bakery, Canned Goods & Soups, Condiments & Spice & Bake, Fruits & Vegetables, Meat & Seafood, Beverages, Frozen Foods, Grains & Pasta & Sides, Personal Care & Health"
ZRSN5,Maay Convenient Inc,07273 Hampton Squares,Canton,OH,44711,709.784.0647x5821,"Breakfast & Cereal, Deli, Personal Care & Health"
ZS3HF,Pump-N-Pantry Of NY,0386 White Dam,Elysburg,PA,17824,461-322-9987x280,"Condiments & Spice & Bake, Paper & Cleaning & Home, Baby Care, Bread & Bakery, Breakfast & Cereal, Canned Goods & Soups, Frozen Foods, Fruits & Vegetables, Meat & Seafood, Pet Care"
ZU9IP,Elnemr Enterprises Inc,562 Evan Courts Suite 377,Manson,WA,98831,922.652.0267x584,"Baby Care, Bread & Bakery, Canned Goods & Soups, Dairy & Eggs & Cheese, Frozen Foods, Grains & Pasta & Sides, Paper & Cleaning & Home, Personal Care & Health, Pet Care, Beverages, Breakfast & Cereal, Condiments & Spice & Bake, Cookies & Snacks & Candy, Fruits & Vegetables, Meat & Seafood"
ZV68L,Mapco,89710 Cory Locks,Almont,MI,48003,+1-969-499-6826x403,"Baby Care, Condiments & Spice & Bake, Dairy & Eggs & Cheese, Grains & Pasta & Sides, Meat & Seafood, Paper & Cleaning & Home, Breakfast & Cereal, Cookies & Snacks & Candy, Fruits & Vegetables, Personal Care & Health, Pet Care"